{"type": "FeatureCollection", "name": "mass", "features": [{"type": "Feature", "geometry": {"type": "Polygon", "coordinates": [[[-71.2551, 42.7366], [-71.2551, 42.7366], [-71.254, 42.7373], [-71.2531, 42.7378], [-71.2525, 42.7382], [-71.252, 42.7385], [-71.2515, 42.7388], [-71.2514, 42.7389], [-71.2513, 42.739], [-71.2511, 42.7391], [-71.2509, 42.7392], [-71.2506, 42.7394], [-71.2504, 42.7395], [-71.2502, 42.7396], [-71.25, 42.7397], [-71.2498, 42.7398], [-71.2496, 42.7399], [-71.2495, 42.74], [-71.2494, 42.7401], [-71.2492, 42.7402], [-71.249, 42.7403], [-71.2489, 42.7404], [-71.2488, 42.7405], [-71.2488, 42.7405], [-71.2487, 42.7405], [-71.2487, 42.7405], [-71.2481, 42.7409], [-71.2455, 42.7425], [-71.2454, 42.7425], [-71.2449, 42.7427], [-71.244, 42.743], [-71.2436, 42.7431], [-71.2374, 42.7449], [-71.2349, 42.7452], [-71.2341, 42.7453], [-71.2332, 42.7454], [-71.2324, 42.7455], [-71.2319, 42.7455], [-71.2268, 42.7461], [-71.2262, 42.7462], [-71.2238, 42.7465], [-71.2231, 42.7463], [-71.2218, 42.746], [-71.2194, 42.7455], [-71.2165, 42.7449], [-71.216, 42.7448], [-71.2154, 42.7447], [-71.215, 42.7446], [-71.2134, 42.7442], [-71.2127, 42.7441], [-71.2109, 42.7437], [-71.2102, 42.7435], [-71.2097, 42.7434], [-71.2087, 42.7432], [-71.2086, 42.7432], [-71.2084, 42.7431], [-71.208, 42.743], [-71.2076, 42.743], [-71.2075, 42.7429], [-71.2072, 42.7429], [-71.2071, 42.7429], [-71.2063, 42.7427], [-71.206, 42.7426], [-71.2049, 42.7424], [-71.2036, 42.7421], [-71.2035, 42.7421], [-71.203, 42.742], [-71.2023, 42.7418], [-71.2003, 42.7414], [-71.1976, 42.7408], [-71.1962, 42.7405], [-71.1961, 42.7404], [-71.1938, 42.74], [-71.1927, 42.7397], [-71.1925, 42.7397], [-71.1881, 42.7387], [-71.1864, 42.7383], [-71.1859, 42.7382], [-71.183, 42.7376], [-71.1818, 42.7373], [-71.1818, 42.7376], [-71.1818, 42.7377], [-71.1821, 42.7419], [-71.1821, 42.7421], [-71.1823, 42.7442], [-71.1823, 42.7447], [-71.1826, 42.7485], [-71.1826, 42.7494], [-71.1827, 42.7497], [-71.1827, 42.7503], [-71.1828, 42.751], [-71.1828, 42.752], [-71.183, 42.754], [-71.183, 42.7543], [-71.1831, 42.7547], [-71.1831, 42.7555], [-71.1834, 42.7591], [-71.1835, 42.7596], [-71.1835, 42.7603], [-71.1836, 42.7606], [-71.184, 42.7657], [-71.184, 42.7663], [-71.1841, 42.7668], [-71.1842, 42.7676], [-71.1848, 42.7757], [-71.1849, 42.776], [-71.185, 42.7781], [-71.1851, 42.7784], [-71.1851, 42.779], [-71.1861, 42.7907], [-71.1861, 42.7909], [-71.1861, 42.7909], [-71.186, 42.7911], [-71.1857, 42.7914], [-71.1854, 42.7916], [-71.185, 42.7919], [-71.1848, 42.7922], [-71.1832, 42.7936], [-71.1824, 42.7943], [-71.1824, 42.7944], [-71.1823, 42.7944], [-71.1801, 42.7964], [-71.1758, 42.8004], [-71.1755, 42.8007], [-71.1748, 42.8014], [-71.1744, 42.8017], [-71.1744, 42.8017], [-71.1686, 42.8071], [-71.1682, 42.8074], [-71.1681, 42.8075], [-71.1679, 42.8077], [-71.1678, 42.8078], [-71.1677, 42.8079], [-71.1666, 42.8089], [-71.166, 42.8091], [-71.1657, 42.8093], [-71.1646, 42.8097], [-71.1556, 42.8132], [-71.1535, 42.814], [-71.1499, 42.8154], [-71.1497, 42.8155], [-71.1479, 42.8162], [-71.1469, 42.8165], [-71.1435, 42.8177], [-71.1408, 42.8187], [-71.1375, 42.8198], [-71.1355, 42.8205], [-71.1328, 42.8215], [-71.1323, 42.8214], [-71.1252, 42.8198], [-71.125, 42.8198], [-71.1248, 42.8197], [-71.1243, 42.8196], [-71.1242, 42.8196], [-71.1197, 42.8186], [-71.1194, 42.8185], [-71.1186, 42.8183], [-71.1177, 42.8181], [-71.1173, 42.818], [-71.1161, 42.8178], [-71.1158, 42.8177], [-71.1154, 42.8176], [-71.1139, 42.8173], [-71.1137, 42.8172], [-71.1137, 42.8172], [-71.1131, 42.8171], [-71.1131, 42.8171], [-71.1129, 42.8171], [-71.1128, 42.817], [-71.1127, 42.817], [-71.1103, 42.8165], [-71.1097, 42.8163], [-71.1079, 42.8159], [-71.1072, 42.8158], [-71.1072, 42.8158], [-71.1067, 42.8157], [-71.1049, 42.8153], [-71.1045, 42.8152], [-71.1037, 42.815], [-71.1028, 42.8148], [-71.1026, 42.8148], [-71.1021, 42.8147], [-71.1018, 42.8146], [-71.1001, 42.8142], [-71.0997, 42.8141], [-71.0993, 42.814], [-71.0985, 42.8139], [-71.0972, 42.8136], [-71.0951, 42.8131], [-71.0948, 42.813], [-71.0912, 42.8122], [-71.0911, 42.8122], [-71.0906, 42.8121], [-71.0875, 42.8114], [-71.0873, 42.8114], [-71.0822, 42.8102], [-71.0819, 42.8102], [-71.0814, 42.8101], [-71.08, 42.8097], [-71.0797, 42.8097], [-71.078, 42.8093], [-71.0724, 42.808], [-71.0722, 42.808], [-71.0707, 42.8077], [-71.0687, 42.8072], [-71.0674, 42.8069], [-71.0672, 42.8069], [-71.067, 42.8069], [-71.066, 42.8066], [-71.0657, 42.8066], [-71.0656, 42.8065], [-71.0655, 42.8065], [-71.0654, 42.8065], [-71.0644, 42.8063], [-71.0644, 42.8063], [-71.0644, 42.8064], [-71.0643, 42.8066], [-71.0623, 42.8119], [-71.0621, 42.8122], [-71.0619, 42.8127], [-71.0618, 42.8131], [-71.061, 42.8152], [-71.0609, 42.8154], [-71.0608, 42.8157], [-71.0607, 42.8158], [-71.0607, 42.816], [-71.0607, 42.816], [-71.0607, 42.816], [-71.0606, 42.8162], [-71.0605, 42.8164], [-71.0605, 42.8165], [-71.0603, 42.8168], [-71.0603, 42.8169], [-71.0602, 42.8172], [-71.0601, 42.8174], [-71.06, 42.8176], [-71.06, 42.8177], [-71.0599, 42.818], [-71.0598, 42.8181], [-71.0597, 42.8184], [-71.0596, 42.8186], [-71.0596, 42.8188], [-71.0596, 42.8188], [-71.0594, 42.8192], [-71.0593, 42.8196], [-71.0592, 42.8199], [-71.059, 42.8202], [-71.059, 42.8203], [-71.0589, 42.8206], [-71.0588, 42.8209], [-71.0587, 42.821], [-71.0586, 42.8212], [-71.0586, 42.8213], [-71.0585, 42.8216], [-71.0585, 42.8217], [-71.0584, 42.822], [-71.0583, 42.822], [-71.0583, 42.822], [-71.0583, 42.8221], [-71.0583, 42.8222], [-71.0583, 42.8222], [-71.0582, 42.8223], [-71.0581, 42.8226], [-71.0581, 42.8227], [-71.0579, 42.8231], [-71.0579, 42.8232], [-71.0579, 42.8232], [-71.0577, 42.8237], [-71.0576, 42.824], [-71.0569, 42.8257], [-71.0563, 42.8273], [-71.0553, 42.8299], [-71.0551, 42.8303], [-71.054, 42.8333], [-71.054, 42.8334], [-71.0499, 42.8403], [-71.0497, 42.8406], [-71.0495, 42.841], [-71.0475, 42.8442], [-71.0475, 42.8443], [-71.0449, 42.8487], [-71.0409, 42.8517], [-71.0398, 42.8526], [-71.0394, 42.8529], [-71.0394, 42.8529], [-71.0391, 42.8531], [-71.0385, 42.8536], [-71.038, 42.854], [-71.0379, 42.8541], [-71.0379, 42.8541], [-71.0349, 42.8564], [-71.0312, 42.8591], [-71.031, 42.8591], [-71.0285, 42.8595], [-71.0255, 42.8601], [-71.024, 42.8604], [-71.0235, 42.8605], [-71.0232, 42.8606], [-71.023, 42.8606], [-71.0229, 42.8606], [-71.0228, 42.8607], [-71.0226, 42.8607], [-71.0175, 42.8615], [-71.0172, 42.8616], [-71.0163, 42.8617], [-71.0149, 42.8619], [-71.0147, 42.8619], [-71.0139, 42.862], [-71.0118, 42.8623], [-71.0105, 42.8625], [-71.0099, 42.8626], [-71.0098, 42.8626], [-71.0049, 42.8633], [-71.0044, 42.8634], [-71.0026, 42.8637], [-71.001, 42.8639], [-71.0006, 42.864], [-70.9995, 42.8641], [-70.9975, 42.8644], [-70.9971, 42.8645], [-70.9969, 42.8645], [-70.9962, 42.8646], [-70.9957, 42.8647], [-70.9947, 42.8648], [-70.9934, 42.865], [-70.9928, 42.8651], [-70.9916, 42.8653], [-70.9916, 42.8653], [-70.9915, 42.8653], [-70.9908, 42.8654], [-70.9907, 42.8654], [-70.9901, 42.8655], [-70.9892, 42.8656], [-70.9888, 42.8657], [-70.9885, 42.8657], [-70.9875, 42.8659], [-70.9872, 42.8659], [-70.9867, 42.866], [-70.9862, 42.8661], [-70.9832, 42.8665], [-70.9802, 42.8669], [-70.9801, 42.8669], [-70.9763, 42.8675], [-70.9752, 42.8676], [-70.9751, 42.8676], [-70.9747, 42.8677], [-70.9723, 42.868], [-70.972, 42.8681], [-70.9694, 42.8685], [-70.967, 42.8688], [-70.9666, 42.869], [-70.9658, 42.8693], [-70.9648, 42.8697], [-70.9626, 42.8706], [-70.9622, 42.8708], [-70.9622, 42.8708], [-70.9621, 42.8708], [-70.962, 42.8708], [-70.9599, 42.8717], [-70.958, 42.8725], [-70.9578, 42.8726], [-70.956, 42.8733], [-70.9558, 42.8734], [-70.9557, 42.8734], [-70.9555, 42.8735], [-70.9553, 42.8736], [-70.9507, 42.8755], [-70.949, 42.8762], [-70.948, 42.8766], [-70.9466, 42.8773], [-70.9465, 42.8773], [-70.9451, 42.8779], [-70.9439, 42.8785], [-70.9394, 42.8806], [-70.9375, 42.8814], [-70.9371, 42.8816], [-70.9358, 42.8822], [-70.9335, 42.8832], [-70.9317, 42.8841], [-70.931, 42.8844], [-70.9306, 42.8846], [-70.9304, 42.8846], [-70.9302, 42.8847], [-70.9296, 42.885], [-70.9285, 42.8852], [-70.924, 42.8856], [-70.9238, 42.8857], [-70.9197, 42.8861], [-70.9193, 42.8861], [-70.9167, 42.8864], [-70.915, 42.8866], [-70.9146, 42.8866], [-70.9145, 42.8866], [-70.9145, 42.8867], [-70.9145, 42.8866], [-70.9139, 42.8867], [-70.9134, 42.8867], [-70.913, 42.8867], [-70.9074, 42.8867], [-70.9049, 42.8868], [-70.9048, 42.8868], [-70.9046, 42.8868], [-70.9036, 42.8868], [-70.9035, 42.8868], [-70.9022, 42.8865], [-70.8998, 42.886], [-70.8905, 42.8839], [-70.8881, 42.8834], [-70.887, 42.8831], [-70.8856, 42.8828], [-70.8855, 42.8828], [-70.8835, 42.8816], [-70.8833, 42.8815], [-70.8827, 42.8811], [-70.8811, 42.8802], [-70.8745, 42.8764], [-70.8742, 42.8762], [-70.8723, 42.8751], [-70.8701, 42.8739], [-70.8687, 42.873], [-70.868, 42.8726], [-70.8674, 42.8723], [-70.8672, 42.8722], [-70.8663, 42.8717], [-70.864, 42.8703], [-70.8638, 42.8702], [-70.8637, 42.8701], [-70.8635, 42.87], [-70.863, 42.8698], [-70.853, 42.864], [-70.8487, 42.8614], [-70.8482, 42.8611], [-70.8477, 42.8609], [-70.8477, 42.8609], [-70.8474, 42.861], [-70.8468, 42.8612], [-70.8466, 42.8613], [-70.8464, 42.8613], [-70.8463, 42.8614], [-70.8461, 42.8614], [-70.8458, 42.8615], [-70.8457, 42.8616], [-70.8448, 42.8619], [-70.844, 42.8621], [-70.8429, 42.8626], [-70.842, 42.8628], [-70.8415, 42.863], [-70.8411, 42.8631], [-70.8409, 42.8632], [-70.8403, 42.8634], [-70.8382, 42.8642], [-70.8367, 42.8647], [-70.836, 42.8651], [-70.8358, 42.8652], [-70.8346, 42.8659], [-70.8342, 42.8661], [-70.8312, 42.8679], [-70.831, 42.868], [-70.8307, 42.8681], [-70.8306, 42.8682], [-70.8297, 42.8687], [-70.8297, 42.8687], [-70.8295, 42.8688], [-70.8291, 42.8689], [-70.8284, 42.8691], [-70.8282, 42.8692], [-70.8281, 42.8692], [-70.8275, 42.8694], [-70.8267, 42.8697], [-70.8265, 42.8698], [-70.8256, 42.87], [-70.8253, 42.8702], [-70.8248, 42.8703], [-70.8243, 42.8705], [-70.8241, 42.8705], [-70.8241, 42.8706], [-70.8236, 42.8707], [-70.8233, 42.8708], [-70.8231, 42.8709], [-70.8225, 42.8711], [-70.822, 42.8712], [-70.8209, 42.8716], [-70.8202, 42.8718], [-70.8194, 42.8718], [-70.8182, 42.8719], [-70.8174, 42.8719], [-70.8173, 42.8719], [-70.817, 42.8719], [-70.8165, 42.872], [-70.8161, 42.872], [-70.816, 42.8721], [-70.8157, 42.8721], [-70.8156, 42.8721], [-70.8147, 42.8722], [-70.8143, 42.8722], [-70.8141, 42.8723], [-70.8138, 42.8723], [-70.8125, 42.8724], [-70.8064, 42.8727], [-70.7925, 42.8733], [-70.7495, 42.8747], [-70.7473, 42.8747], [-70.735, 42.8747], [-70.7386, 42.8693], [-70.7413, 42.8663], [-70.7435, 42.8638], [-70.7452, 42.862], [-70.7463, 42.8608], [-70.7475, 42.8598], [-70.7488, 42.8588], [-70.7482, 42.8571], [-70.7471, 42.8537], [-70.7463, 42.8502], [-70.7462, 42.8476], [-70.7455, 42.8444], [-70.744, 42.8432], [-70.743, 42.8418], [-70.7415, 42.8397], [-70.7403, 42.8377], [-70.739, 42.8358], [-70.7374, 42.8326], [-70.7362, 42.8292], [-70.7358, 42.827], [-70.7349, 42.8245], [-70.7348, 42.823], [-70.7344, 42.8186], [-70.7343, 42.8152], [-70.7344, 42.8124], [-70.7344, 42.8123], [-70.7345, 42.8118], [-70.7339, 42.8088], [-70.7339, 42.8062], [-70.7337, 42.8037], [-70.734, 42.8011], [-70.7341, 42.7986], [-70.7348, 42.7956], [-70.7356, 42.7931], [-70.736, 42.7915], [-70.7365, 42.7899], [-70.7372, 42.788], [-70.7358, 42.7855], [-70.7344, 42.7831], [-70.7329, 42.7804], [-70.7318, 42.7784], [-70.731, 42.7752], [-70.7309, 42.7749], [-70.7306, 42.7733], [-70.7298, 42.7716], [-70.728, 42.7679], [-70.7275, 42.7658], [-70.7269, 42.764], [-70.7262, 42.7613], [-70.7258, 42.759], [-70.724, 42.7566], [-70.722, 42.7543], [-70.7203, 42.7519], [-70.7193, 42.7501], [-70.717, 42.7435], [-70.7143, 42.7319], [-70.7026, 42.7242], [-70.6829, 42.7288], [-70.6613, 42.7366], [-70.6417, 42.7397], [-70.6259, 42.7397], [-70.5906, 42.7335], [-70.5493, 42.7242], [-70.5297, 42.707], [-70.5139, 42.6806], [-70.5061, 42.651], [-70.5021, 42.6355], [-70.5021, 42.6246], [-70.512, 42.6059], [-70.5218, 42.5935], [-70.5316, 42.5841], [-70.5454, 42.5701], [-70.567, 42.5608], [-70.5827, 42.553], [-70.5965, 42.5406], [-70.6063, 42.5312], [-70.6173, 42.5001], [-70.64, 42.4317], [-70.6481, 42.4056], [-70.652, 42.3929], [-70.6582, 42.3763], [-70.6587, 42.3751], [-70.6904, 42.279], [-70.6896, 42.2752], [-70.689, 42.2724], [-70.6888, 42.2683], [-70.6887, 42.2635], [-70.6841, 42.2538], [-70.6806, 42.2523], [-70.676, 42.2501], [-70.6628, 42.2449], [-70.6486, 42.2374], [-70.6401, 42.2284], [-70.6363, 42.2164], [-70.6363, 42.2029], [-70.6392, 42.1909], [-70.6429, 42.1782], [-70.6366, 42.171], [-70.6245, 42.1572], [-70.6226, 42.1544], [-70.6084, 42.1385], [-70.4995, 42.1307], [-70.4148, 42.1251], [-70.4115, 42.1251], [-70.3745, 42.1215], [-70.3225, 42.1179], [-70.2774, 42.1143], [-70.2532, 42.1251], [-70.2495, 42.1269], [-70.2292, 42.1312], [-70.2156, 42.1328], [-70.2062, 42.1331], [-70.1954, 42.1315], [-70.1845, 42.1338], [-70.1725, 42.1345], [-70.168, 42.1339], [-70.1507, 42.1315], [-70.1386, 42.1281], [-70.1357, 42.1273], [-70.1304, 42.1269], [-70.1245, 42.126], [-70.1207, 42.1251], [-70.1207, 42.1251], [-70.0958, 42.116], [-70.0671, 42.1053], [-70.0403, 42.0916], [-70.0116, 42.0734], [-69.9995, 42.0625], [-69.9963, 42.0597], [-69.9695, 42.0293], [-69.9542, 42.008], [-69.9482, 42.0001], [-69.9406, 41.9923], [-69.9291, 41.9785], [-69.923, 41.9678], [-69.9177, 41.9592], [-69.9092, 41.9421], [-69.9024, 41.9221], [-69.8953, 41.9068], [-69.8899, 41.8908], [-69.88, 41.862], [-69.8778, 41.8528], [-69.8763, 41.849], [-69.8745, 41.8424], [-69.8745, 41.8424], [-69.8731, 41.8386], [-69.8726, 41.8344], [-69.8724, 41.8316], [-69.8695, 41.8266], [-69.8665, 41.817], [-69.8656, 41.8077], [-69.8658, 41.7956], [-69.8656, 41.791], [-69.864, 41.7819], [-69.8625, 41.7735], [-69.8624, 41.7663], [-69.8601, 41.7585], [-69.8598, 41.7501], [-69.8591, 41.7365], [-69.8589, 41.7204], [-69.8589, 41.7069], [-69.8605, 41.6923], [-69.8621, 41.685], [-69.8629, 41.6732], [-69.8681, 41.6568], [-69.8711, 41.6526], [-69.8745, 41.645], [-69.8845, 41.6303], [-69.889, 41.6252], [-69.8888, 41.6251], [-69.8894, 41.6227], [-69.8917, 41.6172], [-69.8986, 41.6061], [-69.9075, 41.596], [-69.9154, 41.5892], [-69.9162, 41.5843], [-69.9198, 41.574], [-69.9215, 41.5709], [-69.9213, 41.5623], [-69.9246, 41.5446], [-69.929, 41.5322], [-69.9364, 41.5219], [-69.9466, 41.5122], [-69.9582, 41.5047], [-69.9674, 41.5001], [-69.9686, 41.5001], [-69.9713, 41.4989], [-69.9798, 41.4966], [-69.9883, 41.4945], [-69.9944, 41.4937], [-69.9982, 41.4934], [-69.9995, 41.4911], [-69.9995, 41.4905], [-70.005, 41.4855], [-70.0139, 41.4774], [-70.0201, 41.4739], [-70.0237, 41.4719], [-70.0403, 41.466], [-70.0554, 41.4641], [-70.0737, 41.465], [-70.0849, 41.4675], [-70.1015, 41.4744], [-70.1144, 41.4841], [-70.1226, 41.4945], [-70.1245, 41.4985], [-70.1249, 41.5001], [-70.1267, 41.5037], [-70.128, 41.5097], [-70.1288, 41.5177], [-70.1286, 41.5247], [-70.1268, 41.5309], [-70.1226, 41.5378], [-70.1167, 41.545], [-70.1095, 41.5515], [-70.102, 41.5564], [-70.0949, 41.5592], [-70.0866, 41.5624], [-70.0803, 41.5645], [-70.0795, 41.566], [-70.0783, 41.5684], [-70.0736, 41.5777], [-70.0686, 41.5852], [-70.0634, 41.5902], [-70.0647, 41.5932], [-70.068, 41.603], [-70.0683, 41.6065], [-70.0686, 41.6107], [-70.0778, 41.6125], [-70.0779, 41.6125], [-70.081, 41.6117], [-70.0938, 41.6083], [-70.0942, 41.6082], [-70.1094, 41.6056], [-70.1245, 41.6008], [-70.127, 41.6002], [-70.1311, 41.5996], [-70.1385, 41.5987], [-70.1489, 41.5991], [-70.1604, 41.5994], [-70.1634, 41.598], [-70.1706, 41.5956], [-70.1815, 41.5935], [-70.1835, 41.5927], [-70.1853, 41.592], [-70.1894, 41.5905], [-70.1982, 41.5873], [-70.208, 41.5842], [-70.2146, 41.5778], [-70.2203, 41.5723], [-70.2256, 41.5686], [-70.2319, 41.5656], [-70.2411, 41.5621], [-70.2495, 41.5601], [-70.2557, 41.5591], [-70.2674, 41.5584], [-70.2789, 41.5593], [-70.29, 41.5616], [-70.2993, 41.5659], [-70.3113, 41.5711], [-70.3202, 41.5689], [-70.3315, 41.5679], [-70.3393, 41.5682], [-70.3463, 41.5685], [-70.3519, 41.5666], [-70.3642, 41.5622], [-70.3745, 41.5603], [-70.3797, 41.5592], [-70.3873, 41.5577], [-70.3952, 41.5567], [-70.3971, 41.5544], [-70.4051, 41.5462], [-70.4112, 41.5407], [-70.4173, 41.5348], [-70.4239, 41.5287], [-70.4329, 41.5221], [-70.4401, 41.5175], [-70.4486, 41.5131], [-70.4576, 41.5093], [-70.4664, 41.5062], [-70.4725, 41.5048], [-70.4787, 41.5035], [-70.484, 41.5025], [-70.4897, 41.5019], [-70.494, 41.5023], [-70.4982, 41.5026], [-70.4995, 41.5021], [-70.5028, 41.5006], [-70.5086, 41.499], [-70.5042, 41.4949], [-70.4995, 41.4882], [-70.4985, 41.4864], [-70.4949, 41.4796], [-70.4917, 41.471], [-70.4897, 41.463], [-70.4897, 41.463], [-70.4855, 41.4638], [-70.4854, 41.4638], [-70.476, 41.4661], [-70.4639, 41.468], [-70.448, 41.4694], [-70.4364, 41.4689], [-70.4211, 41.4644], [-70.4059, 41.457], [-70.3929, 41.4455], [-70.3859, 41.4337], [-70.3808, 41.412], [-70.3807, 41.3854], [-70.3822, 41.3751], [-70.3834, 41.3699], [-70.3701, 41.3688], [-70.3677, 41.3714], [-70.3626, 41.3751], [-70.3531, 41.3815], [-70.3383, 41.3886], [-70.3236, 41.3916], [-70.3087, 41.3907], [-70.3024, 41.3896], [-70.2942, 41.3914], [-70.2832, 41.3929], [-70.2673, 41.3934], [-70.2585, 41.3921], [-70.2495, 41.39], [-70.2477, 41.3899], [-70.2381, 41.3862], [-70.2343, 41.3832], [-70.2336, 41.3826], [-70.2249, 41.3751], [-70.2216, 41.3718], [-70.2173, 41.365], [-70.2151, 41.3603], [-70.2083, 41.358], [-70.1984, 41.359], [-70.1873, 41.3584], [-70.1749, 41.3573], [-70.16, 41.3522], [-70.1487, 41.3452], [-70.1379, 41.3464], [-70.1322, 41.3487], [-70.1245, 41.3513], [-70.1193, 41.3526], [-70.1101, 41.3536], [-70.1016, 41.3535], [-70.0978, 41.3536], [-70.1033, 41.3597], [-70.1072, 41.3652], [-70.1113, 41.3704], [-70.1164, 41.3862], [-70.1165, 41.3951], [-70.1127, 41.4081], [-70.1058, 41.4199], [-70.0944, 41.4308], [-70.0788, 41.438], [-70.0652, 41.4427], [-70.0443, 41.4438], [-70.0351, 41.4424], [-70.0259, 41.4411], [-70.0065, 41.4339], [-69.9995, 41.4284], [-69.9946, 41.425], [-69.9892, 41.4212], [-69.9818, 41.4152], [-69.9746, 41.4089], [-69.9696, 41.4035], [-69.9641, 41.3959], [-69.9577, 41.3873], [-69.9525, 41.3797], [-69.9495, 41.3751], [-69.9438, 41.3667], [-69.9385, 41.3576], [-69.9339, 41.351], [-69.9298, 41.3453], [-69.9264, 41.3388], [-69.9216, 41.3324], [-69.915, 41.3242], [-69.9101, 41.3173], [-69.9062, 41.3108], [-69.9029, 41.3052], [-69.8983, 41.297], [-69.8949, 41.2904], [-69.8938, 41.2869], [-69.893, 41.2836], [-69.8924, 41.2791], [-69.8925, 41.2762], [-69.8922, 41.2713], [-69.893, 41.2666], [-69.8945, 41.2592], [-69.896, 41.2541], [-69.8977, 41.2501], [-69.899, 41.2455], [-69.903, 41.2384], [-69.9103, 41.2268], [-69.9158, 41.2209], [-69.9229, 41.2158], [-69.931, 41.2105], [-69.942, 41.2045], [-69.9536, 41.1997], [-69.9637, 41.1964], [-69.9732, 41.1935], [-69.9832, 41.1914], [-69.9995, 41.1883], [-70.0125, 41.1871], [-70.0257, 41.1871], [-70.0397, 41.1882], [-70.0516, 41.1909], [-70.0727, 41.1916], [-70.0961, 41.1905], [-70.1097, 41.1898], [-70.1245, 41.1924], [-70.1359, 41.1946], [-70.1612, 41.2007], [-70.1789, 41.2045], [-70.2058, 41.2142], [-70.217, 41.2182], [-70.228, 41.2227], [-70.24, 41.2285], [-70.2857, 41.2423], [-70.2945, 41.2465], [-70.3143, 41.2605], [-70.3351, 41.2728], [-70.3441, 41.2761], [-70.3576, 41.2726], [-70.3698, 41.2704], [-70.3745, 41.2695], [-70.3867, 41.2713], [-70.3968, 41.273], [-70.4087, 41.2773], [-70.4145, 41.274], [-70.4291, 41.2687], [-70.4448, 41.2655], [-70.4599, 41.2653], [-70.4756, 41.2702], [-70.4933, 41.28], [-70.4995, 41.2857], [-70.5122, 41.2983], [-70.515, 41.2985], [-70.528, 41.2991], [-70.5306, 41.2992], [-70.5452, 41.2997], [-70.5718, 41.3001], [-70.5931, 41.2998], [-70.6035, 41.2995], [-70.6067, 41.2994], [-70.6245, 41.2984], [-70.6312, 41.2979], [-70.6431, 41.297], [-70.6494, 41.2965], [-70.6551, 41.2962], [-70.663, 41.2953], [-70.6717, 41.2945], [-70.6792, 41.2937], [-70.685, 41.2932], [-70.6866, 41.2921], [-70.6891, 41.2909], [-70.6929, 41.2896], [-70.7002, 41.2891], [-70.7031, 41.289], [-70.7046, 41.2848], [-70.7074, 41.2802], [-70.7111, 41.2749], [-70.7165, 41.2695], [-70.7216, 41.2659], [-70.7267, 41.2631], [-70.7348, 41.2592], [-70.7341, 41.2561], [-70.734, 41.2533], [-70.7337, 41.2501], [-70.7348, 41.2463], [-70.7389, 41.2364], [-70.7443, 41.226], [-70.7495, 41.2202], [-70.7542, 41.2161], [-70.7678, 41.2065], [-70.7836, 41.2012], [-70.8059, 41.1987], [-70.8236, 41.2006], [-70.8477, 41.2058], [-70.8663, 41.2154], [-70.8745, 41.2214], [-70.8773, 41.2241], [-70.885, 41.2338], [-70.8905, 41.2431], [-70.8925, 41.2501], [-70.8937, 41.2569], [-70.8942, 41.2594], [-70.8936, 41.268], [-70.8903, 41.2774], [-70.8857, 41.2851], [-70.8782, 41.2921], [-70.8745, 41.295], [-70.87, 41.2971], [-70.8745, 41.3013], [-70.878, 41.3037], [-70.8845, 41.3102], [-70.8914, 41.3188], [-70.8977, 41.3274], [-70.901, 41.3346], [-70.9026, 41.3411], [-70.9038, 41.3467], [-70.9037, 41.3551], [-70.9019, 41.3618], [-70.898, 41.3674], [-70.896, 41.3701], [-70.8962, 41.3701], [-70.9026, 41.3676], [-70.9184, 41.363], [-70.9273, 41.359], [-70.9387, 41.354], [-70.9436, 41.3529], [-70.9558, 41.3502], [-70.9705, 41.3492], [-70.9792, 41.3496], [-70.9907, 41.3513], [-70.9995, 41.3541], [-71.0063, 41.3573], [-71.0148, 41.362], [-71.0205, 41.3667], [-71.0261, 41.3717], [-71.0287, 41.3751], [-71.029, 41.3756], [-71.0294, 41.376], [-71.0327, 41.3803], [-71.0372, 41.3889], [-71.0399, 41.3983], [-71.0381, 41.4055], [-71.0336, 41.4141], [-71.0519, 41.4167], [-71.0535, 41.417], [-71.0724, 41.4256], [-71.085, 41.4335], [-71.0886, 41.4313], [-71.1154, 41.4827], [-71.1164, 41.4846], [-71.1175, 41.4865], [-71.1181, 41.4875], [-71.1211, 41.4928], [-71.1211, 41.4929], [-71.1199, 41.4946], [-71.1199, 41.4951], [-71.1201, 41.4955], [-71.1202, 41.4958], [-71.1202, 41.4961], [-71.1203, 41.4963], [-71.1204, 41.4966], [-71.1205, 41.4971], [-71.1205, 41.4971], [-71.1205, 41.4971], [-71.1205, 41.4972], [-71.1205, 41.4973], [-71.1205, 41.4973], [-71.1205, 41.4974], [-71.1206, 41.4974], [-71.1206, 41.4974], [-71.1206, 41.4974], [-71.1205, 41.4975], [-71.1206, 41.4975], [-71.1206, 41.4977], [-71.1206, 41.4977], [-71.1206, 41.4979], [-71.1208, 41.4996], [-71.1212, 41.5054], [-71.1212, 41.5054], [-71.1212, 41.5058], [-71.1213, 41.5063], [-71.1213, 41.5067], [-71.1213, 41.5071], [-71.1214, 41.5076], [-71.1213, 41.5077], [-71.1213, 41.5077], [-71.1213, 41.5078], [-71.1213, 41.5079], [-71.1214, 41.5081], [-71.1214, 41.5086], [-71.1215, 41.5086], [-71.1215, 41.5088], [-71.1215, 41.5088], [-71.1215, 41.5089], [-71.1217, 41.5114], [-71.1217, 41.5114], [-71.1217, 41.5124], [-71.1217, 41.5125], [-71.1218, 41.5135], [-71.1222, 41.5188], [-71.1222, 41.5194], [-71.1222, 41.5196], [-71.1224, 41.5221], [-71.1225, 41.5226], [-71.1237, 41.5316], [-71.1242, 41.5358], [-71.1246, 41.5384], [-71.1252, 41.5436], [-71.1258, 41.548], [-71.1261, 41.5499], [-71.1262, 41.5508], [-71.1262, 41.551], [-71.1262, 41.5511], [-71.1263, 41.5514], [-71.1263, 41.5515], [-71.1263, 41.5518], [-71.1266, 41.5539], [-71.1268, 41.5549], [-71.1268, 41.555], [-71.1268, 41.5551], [-71.1268, 41.5551], [-71.1269, 41.5554], [-71.1269, 41.5555], [-71.1269, 41.5558], [-71.1269, 41.5558], [-71.1269, 41.5559], [-71.1271, 41.5572], [-71.1271, 41.5573], [-71.1271, 41.5573], [-71.1271, 41.5574], [-71.1272, 41.558], [-71.1273, 41.5585], [-71.1273, 41.5587], [-71.1274, 41.5599], [-71.1275, 41.5603], [-71.1275, 41.5603], [-71.1275, 41.5605], [-71.1278, 41.5628], [-71.1278, 41.563], [-71.1278, 41.5631], [-71.1278, 41.5632], [-71.1281, 41.5653], [-71.1281, 41.5656], [-71.1281, 41.5657], [-71.129, 41.5728], [-71.129, 41.5729], [-71.1291, 41.5736], [-71.1298, 41.5794], [-71.1316, 41.5932], [-71.1316, 41.5937], [-71.1318, 41.594], [-71.1358, 41.5999], [-71.1362, 41.6005], [-71.1368, 41.6013], [-71.1369, 41.6015], [-71.1376, 41.6026], [-71.1382, 41.6034], [-71.1383, 41.6037], [-71.1384, 41.6037], [-71.139, 41.6041], [-71.1397, 41.6045], [-71.1398, 41.6045], [-71.1403, 41.6048], [-71.1404, 41.6054], [-71.1406, 41.6062], [-71.1408, 41.6071], [-71.1412, 41.6088], [-71.1414, 41.6101], [-71.1416, 41.6107], [-71.1416, 41.611], [-71.1417, 41.6112], [-71.142, 41.6125], [-71.1419, 41.6126], [-71.1419, 41.6127], [-71.1417, 41.6139], [-71.1417, 41.6145], [-71.1416, 41.615], [-71.1414, 41.616], [-71.1413, 41.6168], [-71.141, 41.6184], [-71.1406, 41.6211], [-71.1405, 41.6217], [-71.1402, 41.6238], [-71.1402, 41.6239], [-71.1399, 41.6241], [-71.1389, 41.6251], [-71.1387, 41.6253], [-71.1385, 41.6255], [-71.1355, 41.6283], [-71.1353, 41.6285], [-71.1353, 41.6286], [-71.1352, 41.6309], [-71.135, 41.6335], [-71.1348, 41.6363], [-71.1347, 41.6389], [-71.1347, 41.639], [-71.1346, 41.64], [-71.1346, 41.6402], [-71.1346, 41.6402], [-71.1346, 41.6404], [-71.1346, 41.6408], [-71.1345, 41.6412], [-71.1345, 41.6413], [-71.1345, 41.6415], [-71.1345, 41.6424], [-71.1345, 41.6425], [-71.1344, 41.6425], [-71.1344, 41.6425], [-71.1344, 41.6433], [-71.1344, 41.644], [-71.1343, 41.6441], [-71.1342, 41.6455], [-71.1338, 41.6489], [-71.1338, 41.6494], [-71.1333, 41.6532], [-71.1333, 41.654], [-71.1332, 41.6548], [-71.133, 41.6565], [-71.133, 41.6568], [-71.1329, 41.6569], [-71.1329, 41.6571], [-71.1329, 41.6573], [-71.1329, 41.6575], [-71.1329, 41.6577], [-71.1327, 41.6588], [-71.1327, 41.6589], [-71.1327, 41.6592], [-71.1327, 41.6594], [-71.1327, 41.6594], [-71.1327, 41.6594], [-71.1327, 41.6595], [-71.1327, 41.6595], [-71.1326, 41.6596], [-71.1326, 41.6598], [-71.1326, 41.6599], [-71.1326, 41.66], [-71.1326, 41.6603], [-71.1326, 41.6604], [-71.1331, 41.6605], [-71.1333, 41.6605], [-71.1337, 41.6606], [-71.135, 41.6608], [-71.1357, 41.6609], [-71.1362, 41.661], [-71.1374, 41.6612], [-71.1374, 41.6612], [-71.1378, 41.6613], [-71.1379, 41.6613], [-71.1381, 41.6613], [-71.1384, 41.6614], [-71.1385, 41.6614], [-71.1389, 41.6615], [-71.1391, 41.6615], [-71.1399, 41.6617], [-71.1403, 41.6617], [-71.1404, 41.6618], [-71.1405, 41.6618], [-71.141, 41.6619], [-71.1411, 41.6619], [-71.1419, 41.662], [-71.1423, 41.6621], [-71.1431, 41.6622], [-71.1432, 41.6623], [-71.1442, 41.6625], [-71.1446, 41.6625], [-71.1447, 41.6625], [-71.1449, 41.6626], [-71.1451, 41.6626], [-71.1459, 41.6628], [-71.147, 41.6629], [-71.1471, 41.663], [-71.1481, 41.6631], [-71.1488, 41.6633], [-71.1494, 41.6634], [-71.1499, 41.6635], [-71.1503, 41.6636], [-71.1506, 41.6636], [-71.151, 41.6637], [-71.151, 41.6637], [-71.1519, 41.6639], [-71.1534, 41.6641], [-71.1536, 41.6642], [-71.1536, 41.6642], [-71.1552, 41.6645], [-71.1591, 41.6652], [-71.1593, 41.6652], [-71.1617, 41.6657], [-71.1618, 41.6657], [-71.1618, 41.6657], [-71.1621, 41.6657], [-71.1623, 41.6658], [-71.1652, 41.6663], [-71.1695, 41.6671], [-71.1707, 41.6673], [-71.171, 41.6674], [-71.1738, 41.6679], [-71.176, 41.6682], [-71.1761, 41.6682], [-71.1761, 41.6685], [-71.1761, 41.6686], [-71.176, 41.6695], [-71.176, 41.6697], [-71.1759, 41.6701], [-71.1758, 41.671], [-71.1758, 41.6711], [-71.1758, 41.6711], [-71.1758, 41.6712], [-71.1758, 41.6713], [-71.1758, 41.6713], [-71.1758, 41.6715], [-71.1759, 41.6715], [-71.176, 41.6715], [-71.1761, 41.6716], [-71.1775, 41.6718], [-71.1776, 41.6718], [-71.1776, 41.6718], [-71.1777, 41.6718], [-71.1778, 41.6719], [-71.1779, 41.6719], [-71.178, 41.6719], [-71.1781, 41.6719], [-71.1785, 41.672], [-71.179, 41.6721], [-71.1798, 41.6722], [-71.1813, 41.6725], [-71.1817, 41.6726], [-71.1818, 41.6726], [-71.1819, 41.6726], [-71.1822, 41.6727], [-71.1824, 41.6727], [-71.1828, 41.6728], [-71.1828, 41.6728], [-71.1832, 41.6728], [-71.1833, 41.6729], [-71.1837, 41.6729], [-71.1841, 41.673], [-71.1843, 41.6731], [-71.1851, 41.6732], [-71.1854, 41.6733], [-71.1859, 41.6734], [-71.1859, 41.6734], [-71.186, 41.6734], [-71.1861, 41.6734], [-71.1861, 41.6734], [-71.1862, 41.6734], [-71.1862, 41.6734], [-71.1862, 41.6734], [-71.1863, 41.6734], [-71.1869, 41.6735], [-71.1875, 41.6736], [-71.1875, 41.6737], [-71.1875, 41.6737], [-71.1876, 41.6737], [-71.1876, 41.6737], [-71.1877, 41.6737], [-71.1877, 41.6737], [-71.1877, 41.6737], [-71.1878, 41.6737], [-71.1878, 41.6737], [-71.1878, 41.6737], [-71.1883, 41.6738], [-71.1884, 41.6738], [-71.1885, 41.6738], [-71.1886, 41.6738], [-71.1886, 41.6739], [-71.1888, 41.6739], [-71.1888, 41.6739], [-71.1888, 41.6739], [-71.189, 41.6739], [-71.1901, 41.6741], [-71.1904, 41.6742], [-71.1906, 41.6742], [-71.1909, 41.6743], [-71.1911, 41.6743], [-71.1917, 41.6744], [-71.1926, 41.6746], [-71.1928, 41.6746], [-71.1937, 41.6748], [-71.1941, 41.6748], [-71.1941, 41.6748], [-71.1942, 41.6749], [-71.1943, 41.6749], [-71.1945, 41.6749], [-71.1945, 41.6749], [-71.1946, 41.6749], [-71.1955, 41.6751], [-71.1955, 41.6751], [-71.1955, 41.6751], [-71.1956, 41.6752], [-71.1956, 41.6752], [-71.1957, 41.6753], [-71.1976, 41.6776], [-71.1983, 41.6784], [-71.1995, 41.6799], [-71.2012, 41.6819], [-71.2083, 41.6905], [-71.2084, 41.6906], [-71.2225, 41.7077], [-71.226, 41.7122], [-71.2261, 41.7123], [-71.2263, 41.7126], [-71.2264, 41.7127], [-71.2264, 41.7126], [-71.2268, 41.713], [-71.2268, 41.7131], [-71.2272, 41.7135], [-71.228, 41.7144], [-71.2295, 41.7161], [-71.2311, 41.7179], [-71.236, 41.7235], [-71.2433, 41.7318], [-71.2451, 41.734], [-71.248, 41.7372], [-71.2493, 41.7387], [-71.252, 41.7418], [-71.2534, 41.7433], [-71.2546, 41.7448], [-71.2549, 41.7451], [-71.2551, 41.7453], [-71.2564, 41.7468], [-71.2576, 41.7481], [-71.2611, 41.7521], [-71.2615, 41.7523], [-71.2621, 41.7525], [-71.263, 41.7529], [-71.2632, 41.753], [-71.2635, 41.7531], [-71.2638, 41.7532], [-71.2639, 41.7533], [-71.2644, 41.7535], [-71.2647, 41.7536], [-71.2659, 41.7541], [-71.2659, 41.7541], [-71.2661, 41.7542], [-71.2708, 41.7562], [-71.2773, 41.759], [-71.2774, 41.759], [-71.2776, 41.7591], [-71.2787, 41.7596], [-71.2801, 41.7602], [-71.2802, 41.7602], [-71.2817, 41.7609], [-71.282, 41.761], [-71.282, 41.761], [-71.2821, 41.761], [-71.2828, 41.7613], [-71.2832, 41.7615], [-71.2834, 41.7616], [-71.2835, 41.7616], [-71.2841, 41.7619], [-71.2844, 41.762], [-71.2845, 41.7621], [-71.2848, 41.7622], [-71.2858, 41.7626], [-71.2861, 41.7627], [-71.2894, 41.7641], [-71.2897, 41.7643], [-71.2899, 41.7643], [-71.2901, 41.7644], [-71.2902, 41.7645], [-71.2903, 41.7645], [-71.2942, 41.7661], [-71.2948, 41.7664], [-71.2951, 41.7665], [-71.2975, 41.7676], [-71.2976, 41.7676], [-71.2977, 41.7676], [-71.298, 41.7677], [-71.2981, 41.7678], [-71.2982, 41.7678], [-71.2991, 41.7682], [-71.3022, 41.7696], [-71.3036, 41.7701], [-71.3037, 41.7702], [-71.3062, 41.7712], [-71.3063, 41.7713], [-71.3076, 41.7719], [-71.3083, 41.7721], [-71.3085, 41.7722], [-71.3086, 41.7723], [-71.3088, 41.7723], [-71.309, 41.7724], [-71.3093, 41.7725], [-71.3093, 41.7726], [-71.3104, 41.773], [-71.3105, 41.773], [-71.3106, 41.7731], [-71.3118, 41.7736], [-71.3147, 41.7748], [-71.3164, 41.7756], [-71.3177, 41.7761], [-71.3179, 41.7762], [-71.3188, 41.7766], [-71.3189, 41.7766], [-71.32, 41.7771], [-71.3218, 41.7778], [-71.3218, 41.7779], [-71.3219, 41.7779], [-71.322, 41.7779], [-71.3224, 41.7781], [-71.3232, 41.7784], [-71.3233, 41.7785], [-71.3246, 41.7791], [-71.3272, 41.7802], [-71.3276, 41.7803], [-71.3278, 41.7804], [-71.3285, 41.7807], [-71.3285, 41.7808], [-71.3286, 41.7808], [-71.3286, 41.7809], [-71.3287, 41.781], [-71.3288, 41.7814], [-71.3288, 41.7816], [-71.3289, 41.7817], [-71.3289, 41.7819], [-71.3289, 41.7821], [-71.3289, 41.7822], [-71.329, 41.7824], [-71.329, 41.7826], [-71.3291, 41.7827], [-71.3291, 41.7827], [-71.3292, 41.7828], [-71.3293, 41.7826], [-71.3293, 41.7826], [-71.3293, 41.7825], [-71.3293, 41.7822], [-71.3293, 41.7821], [-71.3294, 41.782], [-71.3294, 41.7819], [-71.3294, 41.7819], [-71.3295, 41.7819], [-71.3295, 41.7818], [-71.3296, 41.7818], [-71.3296, 41.7819], [-71.3297, 41.7819], [-71.3298, 41.782], [-71.3298, 41.782], [-71.3298, 41.7821], [-71.3299, 41.7823], [-71.3299, 41.7825], [-71.3299, 41.7826], [-71.3299, 41.7827], [-71.3299, 41.7828], [-71.3298, 41.7828], [-71.3297, 41.7829], [-71.3297, 41.7829], [-71.3297, 41.783], [-71.3297, 41.783], [-71.3297, 41.7831], [-71.3297, 41.7831], [-71.3297, 41.7832], [-71.3298, 41.7834], [-71.3299, 41.7834], [-71.3299, 41.7835], [-71.3298, 41.7835], [-71.3298, 41.7836], [-71.3299, 41.7838], [-71.3299, 41.7838], [-71.3299, 41.7838], [-71.3299, 41.7839], [-71.3299, 41.7839], [-71.3299, 41.7842], [-71.3299, 41.7843], [-71.3299, 41.7844], [-71.3299, 41.7844], [-71.33, 41.7845], [-71.3301, 41.7846], [-71.3302, 41.7847], [-71.3302, 41.7847], [-71.3303, 41.7848], [-71.3303, 41.7848], [-71.3303, 41.7851], [-71.3303, 41.7852], [-71.3303, 41.7852], [-71.3304, 41.7853], [-71.3304, 41.7854], [-71.3304, 41.7854], [-71.3304, 41.7855], [-71.3303, 41.7855], [-71.3303, 41.7856], [-71.3302, 41.7856], [-71.3302, 41.7857], [-71.3301, 41.7861], [-71.33, 41.7862], [-71.33, 41.7863], [-71.33, 41.7864], [-71.3299, 41.7865], [-71.3299, 41.7865], [-71.3299, 41.7866], [-71.3298, 41.7867], [-71.3298, 41.7867], [-71.3298, 41.7868], [-71.3297, 41.787], [-71.3296, 41.787], [-71.3296, 41.7871], [-71.3296, 41.7872], [-71.3297, 41.7876], [-71.3297, 41.7877], [-71.3296, 41.7878], [-71.3296, 41.7879], [-71.3295, 41.788], [-71.3294, 41.7882], [-71.3294, 41.7882], [-71.3294, 41.7883], [-71.3294, 41.7883], [-71.3294, 41.7883], [-71.3295, 41.7883], [-71.3295, 41.7884], [-71.3295, 41.7884], [-71.3296, 41.7884], [-71.3297, 41.7885], [-71.3298, 41.7886], [-71.3299, 41.7886], [-71.3301, 41.7886], [-71.3303, 41.7886], [-71.3304, 41.7886], [-71.3304, 41.7887], [-71.3304, 41.7887], [-71.3304, 41.7887], [-71.3303, 41.7888], [-71.3302, 41.7888], [-71.3302, 41.7889], [-71.3303, 41.7889], [-71.3303, 41.7889], [-71.3304, 41.789], [-71.3305, 41.789], [-71.3305, 41.789], [-71.3305, 41.7891], [-71.3305, 41.7891], [-71.3305, 41.7891], [-71.3306, 41.7891], [-71.3307, 41.7891], [-71.3308, 41.7891], [-71.331, 41.7891], [-71.3311, 41.7891], [-71.3311, 41.7891], [-71.3311, 41.7892], [-71.3311, 41.7892], [-71.3311, 41.7892], [-71.331, 41.7893], [-71.331, 41.7893], [-71.331, 41.7894], [-71.331, 41.7895], [-71.331, 41.7896], [-71.3311, 41.7896], [-71.3312, 41.7895], [-71.3313, 41.7894], [-71.3313, 41.7894], [-71.3313, 41.7893], [-71.3314, 41.7893], [-71.3315, 41.7893], [-71.3315, 41.7893], [-71.3316, 41.7894], [-71.3316, 41.7895], [-71.3316, 41.7896], [-71.3316, 41.7896], [-71.3316, 41.7896], [-71.3318, 41.7897], [-71.3319, 41.7897], [-71.3321, 41.7898], [-71.3322, 41.7899], [-71.3323, 41.7899], [-71.3324, 41.7899], [-71.3326, 41.79], [-71.3327, 41.7902], [-71.3328, 41.7903], [-71.3328, 41.7904], [-71.3328, 41.7905], [-71.3328, 41.7906], [-71.3327, 41.7906], [-71.3326, 41.7907], [-71.3325, 41.7906], [-71.3325, 41.7907], [-71.3325, 41.7907], [-71.3325, 41.7908], [-71.3325, 41.7908], [-71.3325, 41.7909], [-71.3322, 41.791], [-71.3322, 41.791], [-71.3322, 41.791], [-71.3323, 41.7911], [-71.3323, 41.7911], [-71.3323, 41.7911], [-71.3323, 41.7912], [-71.3325, 41.7914], [-71.3326, 41.7916], [-71.3328, 41.7919], [-71.3329, 41.7921], [-71.333, 41.7923], [-71.3331, 41.7924], [-71.3332, 41.7926], [-71.3332, 41.7927], [-71.3332, 41.7928], [-71.3332, 41.7928], [-71.3332, 41.7928], [-71.3331, 41.7929], [-71.3331, 41.7929], [-71.3331, 41.793], [-71.3331, 41.7931], [-71.3331, 41.7931], [-71.3333, 41.7931], [-71.3334, 41.7932], [-71.3335, 41.7932], [-71.3336, 41.7932], [-71.3336, 41.7932], [-71.3335, 41.7933], [-71.3335, 41.7933], [-71.3334, 41.7934], [-71.3335, 41.7934], [-71.3336, 41.7934], [-71.3337, 41.7934], [-71.3339, 41.7935], [-71.3339, 41.7936], [-71.3339, 41.7936], [-71.3339, 41.7936], [-71.3337, 41.7937], [-71.3337, 41.7937], [-71.3337, 41.7937], [-71.3337, 41.7938], [-71.3337, 41.7938], [-71.3337, 41.7938], [-71.3338, 41.7938], [-71.3339, 41.7938], [-71.3339, 41.7939], [-71.3339, 41.7939], [-71.334, 41.7939], [-71.334, 41.7939], [-71.3341, 41.7939], [-71.3341, 41.7939], [-71.3342, 41.7939], [-71.3342, 41.794], [-71.3342, 41.7941], [-71.3342, 41.7942], [-71.3342, 41.7943], [-71.3341, 41.7943], [-71.3341, 41.7944], [-71.3341, 41.7944], [-71.3342, 41.7944], [-71.3344, 41.7944], [-71.3344, 41.7944], [-71.3344, 41.7945], [-71.3344, 41.7946], [-71.3344, 41.7947], [-71.3346, 41.7948], [-71.3348, 41.7949], [-71.3351, 41.795], [-71.3353, 41.795], [-71.3355, 41.7952], [-71.3355, 41.7953], [-71.3355, 41.7954], [-71.3355, 41.7954], [-71.3356, 41.7955], [-71.3358, 41.7955], [-71.3358, 41.7955], [-71.3358, 41.7955], [-71.3359, 41.7955], [-71.3359, 41.7955], [-71.336, 41.7955], [-71.3361, 41.7955], [-71.3362, 41.7955], [-71.3364, 41.7957], [-71.3365, 41.7957], [-71.3366, 41.7958], [-71.3367, 41.7957], [-71.3367, 41.7958], [-71.3368, 41.7958], [-71.3369, 41.7957], [-71.3369, 41.7957], [-71.337, 41.7956], [-71.3371, 41.7955], [-71.3372, 41.7955], [-71.3373, 41.7955], [-71.3375, 41.7956], [-71.3377, 41.7956], [-71.3378, 41.7956], [-71.3379, 41.7956], [-71.3379, 41.7956], [-71.3379, 41.7957], [-71.3379, 41.7957], [-71.338, 41.7957], [-71.338, 41.7957], [-71.3381, 41.7957], [-71.3381, 41.7958], [-71.3382, 41.7958], [-71.3383, 41.7958], [-71.3384, 41.7958], [-71.3385, 41.7958], [-71.3387, 41.7959], [-71.3388, 41.7959], [-71.3388, 41.7959], [-71.3389, 41.796], [-71.3388, 41.796], [-71.339, 41.7962], [-71.3392, 41.7963], [-71.3395, 41.7964], [-71.3396, 41.7964], [-71.3396, 41.7964], [-71.3397, 41.7964], [-71.3399, 41.7965], [-71.34, 41.7966], [-71.3401, 41.7966], [-71.3401, 41.7967], [-71.3402, 41.7967], [-71.3402, 41.7968], [-71.3402, 41.7969], [-71.3402, 41.7969], [-71.3401, 41.7971], [-71.3401, 41.7971], [-71.3402, 41.7971], [-71.3402, 41.7971], [-71.3403, 41.797], [-71.3404, 41.797], [-71.3405, 41.797], [-71.3405, 41.7971], [-71.3404, 41.7972], [-71.3404, 41.7973], [-71.3404, 41.7975], [-71.3404, 41.7976], [-71.3403, 41.7976], [-71.3402, 41.7976], [-71.3401, 41.7976], [-71.3399, 41.7976], [-71.3398, 41.7977], [-71.3399, 41.7979], [-71.34, 41.7979], [-71.34, 41.7981], [-71.34, 41.7981], [-71.34, 41.7982], [-71.3401, 41.7982], [-71.3405, 41.7983], [-71.3406, 41.7983], [-71.3407, 41.7983], [-71.3408, 41.7984], [-71.3408, 41.7986], [-71.3408, 41.7987], [-71.341, 41.7989], [-71.341, 41.7991], [-71.3411, 41.7993], [-71.3411, 41.7995], [-71.3411, 41.7995], [-71.3411, 41.7996], [-71.3412, 41.7998], [-71.3412, 41.7998], [-71.3411, 41.7999], [-71.3409, 41.7999], [-71.3408, 41.8], [-71.3407, 41.8003], [-71.3406, 41.8005], [-71.3407, 41.8006], [-71.3407, 41.8006], [-71.3407, 41.8007], [-71.3406, 41.8008], [-71.3406, 41.8009], [-71.3407, 41.8009], [-71.3408, 41.8011], [-71.3408, 41.8011], [-71.3408, 41.8012], [-71.3407, 41.8012], [-71.3406, 41.8013], [-71.3407, 41.8014], [-71.3407, 41.8015], [-71.3407, 41.8017], [-71.3407, 41.8018], [-71.3406, 41.802], [-71.3405, 41.8021], [-71.3404, 41.8022], [-71.3403, 41.8023], [-71.3403, 41.8024], [-71.3404, 41.8025], [-71.3405, 41.8025], [-71.3406, 41.8026], [-71.3405, 41.8027], [-71.3405, 41.8028], [-71.3405, 41.8029], [-71.3405, 41.8031], [-71.3405, 41.8032], [-71.3405, 41.8032], [-71.3404, 41.8033], [-71.3402, 41.8037], [-71.3402, 41.8038], [-71.3402, 41.8038], [-71.3401, 41.8038], [-71.3401, 41.8038], [-71.3401, 41.8039], [-71.34, 41.8039], [-71.3399, 41.8039], [-71.3399, 41.804], [-71.3398, 41.8042], [-71.3398, 41.8042], [-71.3398, 41.8043], [-71.3396, 41.8046], [-71.3395, 41.8048], [-71.3394, 41.805], [-71.3393, 41.8051], [-71.3392, 41.8052], [-71.3392, 41.8052], [-71.3392, 41.8054], [-71.3391, 41.8056], [-71.3391, 41.8058], [-71.3391, 41.8058], [-71.3392, 41.8059], [-71.3393, 41.8059], [-71.3394, 41.8061], [-71.3394, 41.8061], [-71.3394, 41.8062], [-71.3395, 41.8062], [-71.3395, 41.8062], [-71.3396, 41.8063], [-71.3397, 41.8063], [-71.3396, 41.8064], [-71.3395, 41.8065], [-71.3395, 41.8066], [-71.3395, 41.8066], [-71.3394, 41.8067], [-71.3394, 41.8067], [-71.3394, 41.8067], [-71.3394, 41.8068], [-71.3394, 41.8068], [-71.3394, 41.807], [-71.3395, 41.8071], [-71.3394, 41.8073], [-71.3392, 41.8077], [-71.3392, 41.8077], [-71.3392, 41.8079], [-71.3392, 41.8079], [-71.3392, 41.808], [-71.3392, 41.808], [-71.3393, 41.808], [-71.3394, 41.8081], [-71.3394, 41.8081], [-71.3393, 41.8082], [-71.3393, 41.8085], [-71.3393, 41.8085], [-71.3394, 41.8087], [-71.3394, 41.8087], [-71.3395, 41.8088], [-71.3395, 41.8089], [-71.3397, 41.8091], [-71.3402, 41.81], [-71.3403, 41.8102], [-71.3404, 41.8104], [-71.3406, 41.8109], [-71.3407, 41.8109], [-71.3412, 41.8119], [-71.3415, 41.8124], [-71.3416, 41.8126], [-71.3431, 41.8153], [-71.3474, 41.8229], [-71.3475, 41.8232], [-71.3475, 41.8232], [-71.3473, 41.8237], [-71.3472, 41.8239], [-71.3464, 41.8253], [-71.3463, 41.8256], [-71.3461, 41.826], [-71.346, 41.8262], [-71.3459, 41.8263], [-71.3458, 41.8266], [-71.3452, 41.8277], [-71.3449, 41.8279], [-71.3448, 41.828], [-71.3443, 41.8284], [-71.3433, 41.8293], [-71.3429, 41.8295], [-71.3429, 41.8295], [-71.3427, 41.8297], [-71.3426, 41.8298], [-71.3421, 41.8302], [-71.3413, 41.8308], [-71.3408, 41.8313], [-71.3404, 41.8316], [-71.3401, 41.8318], [-71.3399, 41.832], [-71.3384, 41.8332], [-71.338, 41.8335], [-71.3379, 41.8337], [-71.3377, 41.8338], [-71.3377, 41.8338], [-71.3374, 41.834], [-71.3373, 41.8341], [-71.3371, 41.8343], [-71.3354, 41.8356], [-71.3364, 41.8369], [-71.3369, 41.8375], [-71.337, 41.8377], [-71.3373, 41.838], [-71.3375, 41.8382], [-71.3399, 41.8413], [-71.3399, 41.8414], [-71.34, 41.8414], [-71.3403, 41.8418], [-71.3403, 41.8419], [-71.3405, 41.8421], [-71.3406, 41.8422], [-71.3408, 41.8424], [-71.3409, 41.8426], [-71.341, 41.8427], [-71.341, 41.8427], [-71.3413, 41.8431], [-71.3417, 41.8436], [-71.3419, 41.8439], [-71.3422, 41.8442], [-71.3426, 41.8447], [-71.3423, 41.8452], [-71.3422, 41.8454], [-71.3419, 41.8459], [-71.3417, 41.8465], [-71.3414, 41.8471], [-71.3407, 41.8485], [-71.3404, 41.8492], [-71.3393, 41.8515], [-71.3392, 41.8518], [-71.3384, 41.8534], [-71.3378, 41.8547], [-71.3377, 41.8548], [-71.3377, 41.8549], [-71.3376, 41.8552], [-71.3375, 41.8553], [-71.3374, 41.8555], [-71.3374, 41.8556], [-71.3373, 41.8558], [-71.3367, 41.8569], [-71.335, 41.8606], [-71.3347, 41.8613], [-71.3343, 41.8621], [-71.3343, 41.8622], [-71.3341, 41.8626], [-71.334, 41.8626], [-71.3341, 41.8627], [-71.3341, 41.8628], [-71.3343, 41.8633], [-71.3346, 41.8642], [-71.3346, 41.8643], [-71.3353, 41.8662], [-71.336, 41.8681], [-71.3361, 41.8683], [-71.3361, 41.8683], [-71.3361, 41.8683], [-71.3367, 41.8702], [-71.3374, 41.872], [-71.3374, 41.8722], [-71.3378, 41.8732], [-71.3385, 41.875], [-71.3389, 41.8761], [-71.3393, 41.8775], [-71.3397, 41.8786], [-71.3398, 41.8788], [-71.34, 41.8792], [-71.3401, 41.8795], [-71.3402, 41.8798], [-71.3405, 41.8807], [-71.3406, 41.8811], [-71.3408, 41.8815], [-71.3409, 41.8818], [-71.3409, 41.8821], [-71.3408, 41.8829], [-71.3407, 41.8835], [-71.3403, 41.8861], [-71.3403, 41.8868], [-71.3402, 41.8873], [-71.3398, 41.8901], [-71.3398, 41.8903], [-71.3398, 41.8905], [-71.3398, 41.8906], [-71.3398, 41.8908], [-71.3397, 41.8911], [-71.3395, 41.8926], [-71.3395, 41.8926], [-71.3395, 41.8927], [-71.3395, 41.8927], [-71.3395, 41.8928], [-71.3395, 41.8929], [-71.3394, 41.8935], [-71.3393, 41.8943], [-71.3393, 41.8944], [-71.3393, 41.8945], [-71.3393, 41.8945], [-71.3393, 41.8946], [-71.3393, 41.8946], [-71.3393, 41.8948], [-71.3388, 41.8986], [-71.339, 41.8986], [-71.3396, 41.8985], [-71.3397, 41.8985], [-71.3398, 41.8985], [-71.3405, 41.8984], [-71.3413, 41.8983], [-71.3439, 41.898], [-71.3441, 41.898], [-71.3459, 41.8978], [-71.3465, 41.8977], [-71.3468, 41.8976], [-71.3476, 41.8976], [-71.3478, 41.8975], [-71.3485, 41.8974], [-71.3486, 41.8974], [-71.3491, 41.8974], [-71.3494, 41.8973], [-71.3504, 41.8972], [-71.3513, 41.8971], [-71.3513, 41.8971], [-71.3526, 41.897], [-71.3529, 41.8969], [-71.3533, 41.8969], [-71.3542, 41.8968], [-71.3546, 41.8967], [-71.3551, 41.8967], [-71.3556, 41.8966], [-71.3561, 41.8965], [-71.3568, 41.8965], [-71.3578, 41.8963], [-71.3587, 41.8962], [-71.359, 41.8962], [-71.3595, 41.8961], [-71.3609, 41.896], [-71.3617, 41.8959], [-71.3625, 41.8958], [-71.3626, 41.8958], [-71.3639, 41.8956], [-71.3646, 41.8955], [-71.3648, 41.8955], [-71.365, 41.8955], [-71.3655, 41.8954], [-71.3657, 41.8954], [-71.3659, 41.8954], [-71.3661, 41.8954], [-71.3662, 41.8953], [-71.3711, 41.8948], [-71.3737, 41.8945], [-71.3738, 41.8945], [-71.3738, 41.8945], [-71.3739, 41.8944], [-71.3739, 41.8944], [-71.3741, 41.8944], [-71.3748, 41.8943], [-71.3749, 41.8943], [-71.3761, 41.8942], [-71.3764, 41.8942], [-71.3768, 41.8941], [-71.3776, 41.894], [-71.3784, 41.8939], [-71.3811, 41.8936], [-71.3812, 41.8936], [-71.3813, 41.8936], [-71.3813, 41.8936], [-71.3815, 41.8935], [-71.3815, 41.8937], [-71.3815, 41.8939], [-71.3815, 41.8941], [-71.3815, 41.8946], [-71.3815, 41.8947], [-71.3815, 41.8951], [-71.3815, 41.8957], [-71.3815, 41.8959], [-71.3815, 41.8961], [-71.3815, 41.8963], [-71.3815, 41.8968], [-71.3815, 41.8974], [-71.3815, 41.8986], [-71.3815, 41.8989], [-71.3815, 41.8994], [-71.3815, 41.8998], [-71.3815, 41.9], [-71.3815, 41.9003], [-71.3815, 41.9019], [-71.3815, 41.9036], [-71.3815, 41.9037], [-71.3815, 41.9045], [-71.3815, 41.9047], [-71.3815, 41.9048], [-71.3815, 41.905], [-71.3815, 41.9053], [-71.3814, 41.9061], [-71.3814, 41.9068], [-71.3814, 41.9077], [-71.3814, 41.9077], [-71.3814, 41.9102], [-71.3814, 41.9105], [-71.3814, 41.9115], [-71.3814, 41.9117], [-71.3814, 41.9122], [-71.3814, 41.9122], [-71.3814, 41.9125], [-71.3814, 41.9129], [-71.3814, 41.913], [-71.3814, 41.9133], [-71.3814, 41.914], [-71.3814, 41.9142], [-71.3814, 41.9147], [-71.3814, 41.9148], [-71.3814, 41.915], [-71.3814, 41.9153], [-71.3814, 41.9155], [-71.3814, 41.9161], [-71.3814, 41.9161], [-71.3814, 41.9163], [-71.3814, 41.9163], [-71.3814, 41.9167], [-71.3814, 41.9187], [-71.3814, 41.9189], [-71.3814, 41.9196], [-71.3814, 41.9197], [-71.3814, 41.9199], [-71.3814, 41.9199], [-71.3814, 41.92], [-71.3814, 41.9202], [-71.3814, 41.9202], [-71.3814, 41.9206], [-71.3814, 41.9211], [-71.3814, 41.9212], [-71.3814, 41.9213], [-71.3814, 41.9214], [-71.3814, 41.9215], [-71.3814, 41.9217], [-71.3814, 41.922], [-71.3814, 41.9223], [-71.3814, 41.9226], [-71.3814, 41.9228], [-71.3814, 41.923], [-71.3814, 41.9232], [-71.3814, 41.9236], [-71.3814, 41.9265], [-71.3814, 41.9268], [-71.3814, 41.9272], [-71.3814, 41.9274], [-71.3814, 41.9276], [-71.3814, 41.9285], [-71.3814, 41.9289], [-71.3814, 41.9298], [-71.3814, 41.9371], [-71.3814, 41.9372], [-71.3814, 41.939], [-71.3814, 41.9395], [-71.3814, 41.9397], [-71.3814, 41.9436], [-71.3814, 41.9448], [-71.3814, 41.9477], [-71.3814, 41.9489], [-71.3814, 41.9495], [-71.3814, 41.951], [-71.3814, 41.9512], [-71.3814, 41.9517], [-71.3814, 41.9517], [-71.3814, 41.9529], [-71.3814, 41.9532], [-71.3814, 41.9549], [-71.3814, 41.9557], [-71.3814, 41.9564], [-71.3814, 41.9574], [-71.3814, 41.9587], [-71.3814, 41.963], [-71.3814, 41.963], [-71.3814, 41.9646], [-71.3814, 41.9651], [-71.3814, 41.9652], [-71.3814, 41.9656], [-71.3814, 41.9666], [-71.3814, 41.9667], [-71.3814, 41.9668], [-71.3814, 41.967], [-71.3814, 41.9714], [-71.3814, 41.9722], [-71.3814, 41.9726], [-71.3814, 41.9727], [-71.3814, 41.9727], [-71.3814, 41.9757], [-71.3814, 41.9757], [-71.3814, 41.9761], [-71.3814, 41.9764], [-71.3814, 41.9772], [-71.3814, 41.9773], [-71.3814, 41.9802], [-71.3814, 41.9809], [-71.3814, 41.9827], [-71.3814, 41.9828], [-71.3814, 41.9844], [-71.3813, 41.9851], [-71.3814, 41.9902], [-71.3814, 41.992], [-71.3814, 41.9941], [-71.3815, 41.9987], [-71.3815, 41.9992], [-71.3815, 42.0], [-71.3815, 42.0007], [-71.3815, 42.0018], [-71.3815, 42.0067], [-71.3815, 42.0102], [-71.3814, 42.0188], [-71.3833, 42.0188], [-71.3837, 42.0188], [-71.3839, 42.0188], [-71.3841, 42.0188], [-71.3848, 42.0188], [-71.385, 42.0188], [-71.3852, 42.0188], [-71.3873, 42.0188], [-71.3874, 42.0188], [-71.3896, 42.0188], [-71.3907, 42.0188], [-71.3917, 42.0188], [-71.3927, 42.0188], [-71.3951, 42.0188], [-71.3951, 42.0188], [-71.3966, 42.0187], [-71.3999, 42.0187], [-71.403, 42.0187], [-71.403, 42.0187], [-71.4107, 42.0185], [-71.4124, 42.0185], [-71.4143, 42.0185], [-71.4143, 42.0185], [-71.4156, 42.0185], [-71.4157, 42.0185], [-71.417, 42.0185], [-71.4183, 42.0184], [-71.4183, 42.0184], [-71.4191, 42.0184], [-71.4192, 42.0184], [-71.4195, 42.0184], [-71.4199, 42.0184], [-71.4206, 42.0184], [-71.422, 42.0183], [-71.4225, 42.0183], [-71.4228, 42.0183], [-71.423, 42.0183], [-71.4241, 42.0183], [-71.4244, 42.0183], [-71.4246, 42.0183], [-71.4276, 42.0182], [-71.4299, 42.0182], [-71.4335, 42.0182], [-71.4375, 42.0181], [-71.4377, 42.0181], [-71.4389, 42.0181], [-71.439, 42.0181], [-71.4392, 42.0181], [-71.4392, 42.0181], [-71.4393, 42.0181], [-71.4393, 42.0181], [-71.4413, 42.0181], [-71.4415, 42.0181], [-71.4416, 42.0181], [-71.4468, 42.0179], [-71.4472, 42.0179], [-71.45, 42.0179], [-71.4502, 42.0179], [-71.4527, 42.0179], [-71.4528, 42.0179], [-71.454, 42.0178], [-71.4581, 42.0178], [-71.4635, 42.0177], [-71.4655, 42.0177], [-71.4731, 42.0176], [-71.4792, 42.0175], [-71.4819, 42.0175], [-71.482, 42.0175], [-71.4823, 42.0175], [-71.4827, 42.0175], [-71.4838, 42.0175], [-71.4848, 42.0175], [-71.4854, 42.0175], [-71.4855, 42.0175], [-71.4867, 42.0174], [-71.4894, 42.0174], [-71.4913, 42.0174], [-71.4915, 42.0174], [-71.4916, 42.0174], [-71.4918, 42.0174], [-71.4924, 42.0174], [-71.4927, 42.0174], [-71.4936, 42.0173], [-71.4944, 42.0173], [-71.4953, 42.0173], [-71.4962, 42.0173], [-71.4977, 42.0173], [-71.4981, 42.0173], [-71.4982, 42.0173], [-71.4983, 42.0173], [-71.4991, 42.0172], [-71.4991, 42.0172], [-71.4992, 42.0172], [-71.4997, 42.0172], [-71.4998, 42.0172], [-71.4999, 42.0172], [-71.5009, 42.0171], [-71.502, 42.017], [-71.5021, 42.017], [-71.5025, 42.017], [-71.5031, 42.0169], [-71.5044, 42.0168], [-71.5053, 42.0167], [-71.5057, 42.0167], [-71.5058, 42.0167], [-71.5059, 42.0167], [-71.506, 42.0167], [-71.5063, 42.0167], [-71.5064, 42.0167], [-71.5066, 42.0167], [-71.5069, 42.0166], [-71.5072, 42.0166], [-71.5104, 42.0164], [-71.5114, 42.0163], [-71.5116, 42.0163], [-71.5117, 42.0163], [-71.5142, 42.0161], [-71.5144, 42.0161], [-71.5164, 42.0159], [-71.5166, 42.0159], [-71.5171, 42.0159], [-71.5172, 42.0159], [-71.5188, 42.0157], [-71.5192, 42.0157], [-71.5198, 42.0157], [-71.5204, 42.0156], [-71.5207, 42.0156], [-71.5208, 42.0156], [-71.5214, 42.0156], [-71.5217, 42.0155], [-71.5233, 42.0154], [-71.5246, 42.0153], [-71.5265, 42.0152], [-71.527, 42.0151], [-71.5272, 42.0151], [-71.5273, 42.0151], [-71.5274, 42.0151], [-71.5276, 42.0151], [-71.5277, 42.0151], [-71.5287, 42.0151], [-71.5287, 42.0151], [-71.5289, 42.0151], [-71.529, 42.0151], [-71.5291, 42.0151], [-71.5298, 42.015], [-71.532, 42.015], [-71.5327, 42.015], [-71.5328, 42.015], [-71.5337, 42.015], [-71.5344, 42.0149], [-71.5352, 42.0149], [-71.5353, 42.0149], [-71.5355, 42.0149], [-71.5363, 42.0149], [-71.5364, 42.0149], [-71.5375, 42.0149], [-71.5375, 42.0149], [-71.5379, 42.0149], [-71.5385, 42.0148], [-71.5406, 42.0148], [-71.5425, 42.0148], [-71.5428, 42.0148], [-71.543, 42.0147], [-71.5434, 42.0147], [-71.5436, 42.0147], [-71.5437, 42.0147], [-71.5438, 42.0147], [-71.5445, 42.0147], [-71.5449, 42.0147], [-71.5452, 42.0147], [-71.5457, 42.0147], [-71.5475, 42.0146], [-71.5477, 42.0146], [-71.5489, 42.0146], [-71.5515, 42.0146], [-71.5533, 42.0145], [-71.5534, 42.0145], [-71.5534, 42.0145], [-71.5535, 42.0145], [-71.5536, 42.0145], [-71.5587, 42.0144], [-71.56, 42.0144], [-71.5601, 42.0144], [-71.5626, 42.0143], [-71.5631, 42.0143], [-71.5634, 42.0143], [-71.5637, 42.0143], [-71.5637, 42.0143], [-71.5638, 42.0143], [-71.5638, 42.0143], [-71.5639, 42.0143], [-71.5655, 42.0142], [-71.5663, 42.0142], [-71.5667, 42.0142], [-71.5676, 42.0142], [-71.5703, 42.0141], [-71.571, 42.0141], [-71.5713, 42.0141], [-71.5719, 42.0141], [-71.5724, 42.0141], [-71.5731, 42.0141], [-71.5734, 42.0141], [-71.5748, 42.014], [-71.5759, 42.014], [-71.5762, 42.014], [-71.5766, 42.014], [-71.5768, 42.014], [-71.5769, 42.014], [-71.5775, 42.014], [-71.5785, 42.0139], [-71.5805, 42.0139], [-71.5806, 42.0139], [-71.5815, 42.0139], [-71.583, 42.0138], [-71.5846, 42.0138], [-71.5847, 42.0138], [-71.5854, 42.0138], [-71.5869, 42.0137], [-71.587, 42.0137], [-71.5873, 42.0137], [-71.5908, 42.0137], [-71.5911, 42.0136], [-71.5914, 42.0136], [-71.5941, 42.0136], [-71.5943, 42.0136], [-71.5945, 42.0136], [-71.5972, 42.0135], [-71.5975, 42.0135], [-71.6027, 42.0134], [-71.6059, 42.0133], [-71.6062, 42.0133], [-71.6064, 42.0133], [-71.6067, 42.0133], [-71.6078, 42.0133], [-71.6081, 42.0132], [-71.6146, 42.0131], [-71.6176, 42.013], [-71.6177, 42.013], [-71.6181, 42.013], [-71.6225, 42.0129], [-71.6226, 42.0129], [-71.6234, 42.0129], [-71.6236, 42.0129], [-71.626, 42.0128], [-71.6261, 42.0128], [-71.6261, 42.0128], [-71.6265, 42.0128], [-71.6334, 42.0127], [-71.6341, 42.0126], [-71.6358, 42.0126], [-71.6367, 42.0126], [-71.6399, 42.0125], [-71.6416, 42.0125], [-71.6453, 42.0124], [-71.6495, 42.0123], [-71.6496, 42.0123], [-71.6526, 42.0122], [-71.6529, 42.0122], [-71.6544, 42.0122], [-71.6616, 42.012], [-71.6617, 42.012], [-71.6635, 42.0119], [-71.6637, 42.0119], [-71.6664, 42.0119], [-71.6668, 42.0119], [-71.6671, 42.0119], [-71.669, 42.0118], [-71.67, 42.0118], [-71.6706, 42.0118], [-71.6744, 42.0117], [-71.6748, 42.0117], [-71.6749, 42.0117], [-71.6754, 42.0117], [-71.678, 42.0116], [-71.6781, 42.0116], [-71.6805, 42.0115], [-71.6809, 42.0115], [-71.681, 42.0115], [-71.6822, 42.0115], [-71.6824, 42.0115], [-71.6827, 42.0115], [-71.6848, 42.0114], [-71.6986, 42.0111], [-71.6987, 42.0111], [-71.6999, 42.0111], [-71.7006, 42.0111], [-71.7022, 42.0111], [-71.7024, 42.011], [-71.7049, 42.011], [-71.705, 42.011], [-71.7053, 42.011], [-71.7054, 42.011], [-71.7056, 42.011], [-71.7063, 42.011], [-71.7092, 42.0109], [-71.7093, 42.0109], [-71.7098, 42.0109], [-71.7101, 42.0109], [-71.7105, 42.0109], [-71.7111, 42.0109], [-71.7136, 42.0108], [-71.7136, 42.0108], [-71.7137, 42.0108], [-71.7156, 42.0108], [-71.7173, 42.0107], [-71.7209, 42.0106], [-71.7249, 42.0105], [-71.725, 42.0105], [-71.7275, 42.0105], [-71.7341, 42.0103], [-71.7358, 42.0103], [-71.739, 42.0102], [-71.7409, 42.0102], [-71.7409, 42.0102], [-71.7413, 42.0102], [-71.7475, 42.01], [-71.7496, 42.01], [-71.7503, 42.01], [-71.7503, 42.01], [-71.7517, 42.0099], [-71.7519, 42.0099], [-71.7521, 42.0099], [-71.7551, 42.0099], [-71.7558, 42.0098], [-71.7657, 42.0096], [-71.7658, 42.0096], [-71.7661, 42.0096], [-71.7662, 42.0096], [-71.7663, 42.0096], [-71.7665, 42.0096], [-71.7668, 42.0096], [-71.7685, 42.0095], [-71.7689, 42.0095], [-71.7692, 42.0095], [-71.7694, 42.0095], [-71.7713, 42.0095], [-71.7714, 42.0095], [-71.7716, 42.0095], [-71.7779, 42.0091], [-71.7802, 42.009], [-71.7828, 42.0089], [-71.7832, 42.0089], [-71.7838, 42.0088], [-71.7871, 42.0087], [-71.7873, 42.0087], [-71.7878, 42.0086], [-71.7902, 42.0085], [-71.7992, 42.0081], [-71.7995, 42.0124], [-71.7996, 42.0143], [-71.7996, 42.0146], [-71.7997, 42.0156], [-71.7997, 42.0156], [-71.7998, 42.0166], [-71.8005, 42.0221], [-71.8007, 42.0235], [-71.8017, 42.0235], [-71.8026, 42.0235], [-71.8027, 42.0235], [-71.8045, 42.0236], [-71.8047, 42.0236], [-71.8087, 42.0236], [-71.8205, 42.0237], [-71.8219, 42.0237], [-71.8227, 42.0237], [-71.8234, 42.0238], [-71.826, 42.0238], [-71.8266, 42.0238], [-71.827, 42.0238], [-71.8273, 42.0238], [-71.8275, 42.0238], [-71.8284, 42.0238], [-71.8285, 42.0238], [-71.8286, 42.0238], [-71.8306, 42.0238], [-71.8306, 42.0238], [-71.831, 42.0238], [-71.8319, 42.0238], [-71.8323, 42.0239], [-71.8332, 42.0239], [-71.8334, 42.0239], [-71.8334, 42.0239], [-71.8335, 42.0239], [-71.8345, 42.0239], [-71.8346, 42.0239], [-71.8348, 42.0239], [-71.8357, 42.0239], [-71.8374, 42.0239], [-71.8375, 42.0239], [-71.8375, 42.0239], [-71.8376, 42.0239], [-71.8386, 42.0239], [-71.8393, 42.0239], [-71.8393, 42.0239], [-71.8398, 42.0239], [-71.8403, 42.0239], [-71.8414, 42.0239], [-71.8416, 42.0239], [-71.8426, 42.024], [-71.8428, 42.024], [-71.844, 42.024], [-71.8443, 42.024], [-71.8443, 42.024], [-71.8443, 42.024], [-71.8457, 42.024], [-71.8457, 42.024], [-71.8467, 42.024], [-71.8497, 42.024], [-71.8507, 42.024], [-71.8512, 42.0241], [-71.8524, 42.0241], [-71.8526, 42.0241], [-71.8526, 42.0241], [-71.8534, 42.0241], [-71.8538, 42.0241], [-71.855, 42.0241], [-71.8556, 42.0241], [-71.8584, 42.0241], [-71.8604, 42.0241], [-71.8609, 42.0242], [-71.8619, 42.0242], [-71.866, 42.0242], [-71.8663, 42.0242], [-71.87, 42.0242], [-71.8714, 42.0243], [-71.873, 42.0243], [-71.8738, 42.0243], [-71.8773, 42.0243], [-71.8774, 42.0243], [-71.8775, 42.0243], [-71.8797, 42.0243], [-71.8822, 42.0244], [-71.8823, 42.0244], [-71.8829, 42.0244], [-71.8834, 42.0244], [-71.8835, 42.0244], [-71.8837, 42.0244], [-71.8839, 42.0244], [-71.8839, 42.0244], [-71.884, 42.0244], [-71.8841, 42.0244], [-71.8844, 42.0244], [-71.8848, 42.0244], [-71.888, 42.0244], [-71.8881, 42.0244], [-71.8898, 42.0245], [-71.8898, 42.0245], [-71.8899, 42.0245], [-71.89, 42.0245], [-71.8901, 42.0245], [-71.8902, 42.0245], [-71.8902, 42.0245], [-71.891, 42.0245], [-71.8915, 42.0245], [-71.8955, 42.0245], [-71.8963, 42.0245], [-71.8995, 42.0245], [-71.9011, 42.0246], [-71.9013, 42.0246], [-71.9033, 42.0246], [-71.9131, 42.0249], [-71.9168, 42.025], [-71.9191, 42.025], [-71.9192, 42.025], [-71.9209, 42.0251], [-71.9257, 42.0252], [-71.9289, 42.0253], [-71.9369, 42.0255], [-71.9371, 42.0255], [-71.9379, 42.0255], [-71.9393, 42.0256], [-71.9399, 42.0256], [-71.941, 42.0256], [-71.9441, 42.0257], [-71.9443, 42.0257], [-71.9444, 42.0257], [-71.9445, 42.0257], [-71.9451, 42.0257], [-71.9465, 42.0258], [-71.9507, 42.0259], [-71.9522, 42.0259], [-71.9526, 42.0259], [-71.9534, 42.026], [-71.9543, 42.026], [-71.9543, 42.026], [-71.9553, 42.026], [-71.9553, 42.026], [-71.9556, 42.026], [-71.9563, 42.026], [-71.9564, 42.026], [-71.9571, 42.0261], [-71.9583, 42.0261], [-71.9586, 42.0261], [-71.9587, 42.0261], [-71.9588, 42.0261], [-71.9598, 42.0261], [-71.96, 42.0261], [-71.9613, 42.0262], [-71.963, 42.0262], [-71.9634, 42.0262], [-71.9667, 42.0263], [-71.9669, 42.0263], [-71.9675, 42.0263], [-71.9685, 42.0264], [-71.9711, 42.0264], [-71.9713, 42.0264], [-71.9723, 42.0265], [-71.9738, 42.0265], [-71.974, 42.0265], [-71.9742, 42.0265], [-71.9743, 42.0265], [-71.9759, 42.0266], [-71.9765, 42.0266], [-71.9786, 42.0266], [-71.9788, 42.0266], [-71.9868, 42.0269], [-71.9876, 42.0269], [-71.9877, 42.0269], [-71.9889, 42.0269], [-71.9922, 42.0269], [-71.9931, 42.0269], [-71.9983, 42.027], [-71.9986, 42.027], [-71.9995, 42.027], [-72.0014, 42.027], [-72.0066, 42.0271], [-72.01, 42.0271], [-72.0101, 42.0271], [-72.0103, 42.0271], [-72.0105, 42.0271], [-72.0226, 42.0272], [-72.0238, 42.0272], [-72.028, 42.0272], [-72.0295, 42.0273], [-72.0297, 42.0273], [-72.0302, 42.0273], [-72.0346, 42.0273], [-72.0346, 42.0273], [-72.0348, 42.0273], [-72.0396, 42.0273], [-72.0409, 42.0274], [-72.0425, 42.0274], [-72.0448, 42.0274], [-72.0449, 42.0274], [-72.0463, 42.0274], [-72.0467, 42.0274], [-72.048, 42.0274], [-72.0484, 42.0274], [-72.0529, 42.0275], [-72.0529, 42.0275], [-72.0594, 42.0275], [-72.0598, 42.0275], [-72.0625, 42.0275], [-72.067, 42.0276], [-72.0718, 42.0276], [-72.0731, 42.0277], [-72.0845, 42.0282], [-72.0846, 42.0282], [-72.0849, 42.0282], [-72.0861, 42.0282], [-72.0877, 42.0283], [-72.0878, 42.0283], [-72.089, 42.0283], [-72.0894, 42.0283], [-72.0895, 42.0284], [-72.0899, 42.0284], [-72.0949, 42.0286], [-72.0951, 42.0286], [-72.0998, 42.0288], [-72.1007, 42.0288], [-72.1022, 42.0289], [-72.1024, 42.0289], [-72.1027, 42.0289], [-72.1028, 42.0289], [-72.1031, 42.0289], [-72.1034, 42.0289], [-72.1036, 42.0289], [-72.1037, 42.0289], [-72.1051, 42.029], [-72.1062, 42.029], [-72.1095, 42.0292], [-72.113, 42.0293], [-72.1186, 42.0295], [-72.1203, 42.0296], [-72.1223, 42.0297], [-72.1232, 42.0297], [-72.1245, 42.0298], [-72.1251, 42.0298], [-72.1261, 42.0298], [-72.1287, 42.0299], [-72.1311, 42.03], [-72.1323, 42.0301], [-72.1351, 42.0302], [-72.1357, 42.0302], [-72.1362, 42.0302], [-72.1368, 42.0303], [-72.142, 42.0305], [-72.1421, 42.0305], [-72.1423, 42.0305], [-72.1432, 42.0305], [-72.1432, 42.0305], [-72.144, 42.0305], [-72.1449, 42.0305], [-72.1458, 42.0305], [-72.1473, 42.0306], [-72.1483, 42.0306], [-72.1501, 42.0306], [-72.1656, 42.0307], [-72.1661, 42.0307], [-72.1684, 42.0308], [-72.1688, 42.0308], [-72.1706, 42.0308], [-72.171, 42.0308], [-72.1741, 42.0308], [-72.1754, 42.0308], [-72.1785, 42.0308], [-72.1847, 42.0309], [-72.188, 42.0309], [-72.1988, 42.031], [-72.1988, 42.031], [-72.1989, 42.031], [-72.202, 42.031], [-72.2046, 42.0311], [-72.2051, 42.0311], [-72.2109, 42.0311], [-72.2124, 42.0311], [-72.2126, 42.0311], [-72.2268, 42.0313], [-72.2269, 42.0313], [-72.2283, 42.0313], [-72.2286, 42.0313], [-72.2323, 42.0313], [-72.2395, 42.0314], [-72.2398, 42.0314], [-72.241, 42.0314], [-72.2413, 42.0314], [-72.2472, 42.0314], [-72.2488, 42.0314], [-72.249, 42.0315], [-72.2621, 42.0316], [-72.2699, 42.0316], [-72.2707, 42.0316], [-72.2717, 42.0316], [-72.2789, 42.0317], [-72.2798, 42.0317], [-72.2874, 42.0318], [-72.2884, 42.0318], [-72.2916, 42.0318], [-72.2999, 42.0319], [-72.3056, 42.0319], [-72.3085, 42.0319], [-72.3171, 42.032], [-72.3213, 42.032], [-72.3218, 42.032], [-72.3248, 42.032], [-72.3298, 42.0321], [-72.3337, 42.0321], [-72.3356, 42.0321], [-72.3373, 42.0321], [-72.3388, 42.0322], [-72.3388, 42.0322], [-72.3537, 42.0326], [-72.355, 42.0326], [-72.3656, 42.0327], [-72.3665, 42.0327], [-72.367, 42.0327], [-72.3671, 42.0327], [-72.3677, 42.0327], [-72.3677, 42.0327], [-72.3702, 42.0327], [-72.386, 42.0329], [-72.3892, 42.0329], [-72.3918, 42.033], [-72.3919, 42.033], [-72.3931, 42.033], [-72.3974, 42.0331], [-72.3988, 42.0331], [-72.4154, 42.0334], [-72.4159, 42.0335], [-72.4165, 42.0335], [-72.4166, 42.0335], [-72.4168, 42.0335], [-72.4168, 42.0335], [-72.4188, 42.0335], [-72.4281, 42.0337], [-72.4327, 42.0338], [-72.4341, 42.0338], [-72.4357, 42.0339], [-72.4415, 42.034], [-72.4547, 42.0343], [-72.4559, 42.0343], [-72.456, 42.0343], [-72.4565, 42.0343], [-72.4571, 42.0343], [-72.4583, 42.0343], [-72.4601, 42.0344], [-72.4696, 42.0343], [-72.4798, 42.0343], [-72.4847, 42.0342], [-72.4922, 42.0342], [-72.4923, 42.0342], [-72.4928, 42.0342], [-72.5092, 42.0344], [-72.5172, 42.0344], [-72.5201, 42.0345], [-72.5246, 42.0345], [-72.528, 42.0345], [-72.5315, 42.0346], [-72.532, 42.0345], [-72.5352, 42.0342], [-72.5366, 42.034], [-72.5405, 42.0336], [-72.5416, 42.0335], [-72.5495, 42.0326], [-72.5531, 42.0322], [-72.5594, 42.0316], [-72.561, 42.0314], [-72.5618, 42.0313], [-72.5654, 42.031], [-72.5681, 42.0307], [-72.5728, 42.0302], [-72.5728, 42.0302], [-72.574, 42.0295], [-72.5741, 42.0294], [-72.575, 42.0289], [-72.5759, 42.0284], [-72.5794, 42.0263], [-72.5807, 42.0256], [-72.5814, 42.0252], [-72.5822, 42.0247], [-72.5823, 42.0247], [-72.5824, 42.0247], [-72.583, 42.0248], [-72.583, 42.0248], [-72.584, 42.0248], [-72.5873, 42.0248], [-72.5897, 42.0249], [-72.5899, 42.0249], [-72.5899, 42.0249], [-72.5904, 42.0249], [-72.5982, 42.025], [-72.5984, 42.025], [-72.6009, 42.0251], [-72.6028, 42.0251], [-72.6036, 42.0251], [-72.6044, 42.0251], [-72.607, 42.0251], [-72.6072, 42.0251], [-72.6073, 42.0259], [-72.6073, 42.0262], [-72.6079, 42.0308], [-72.608, 42.0309], [-72.608, 42.0311], [-72.6085, 42.0311], [-72.611, 42.0311], [-72.6117, 42.0311], [-72.6161, 42.0312], [-72.6169, 42.0312], [-72.6181, 42.0313], [-72.637, 42.0319], [-72.6398, 42.032], [-72.6402, 42.032], [-72.6416, 42.0322], [-72.6431, 42.0323], [-72.6433, 42.0323], [-72.6435, 42.0324], [-72.6472, 42.0327], [-72.6575, 42.0337], [-72.6632, 42.0343], [-72.673, 42.0352], [-72.6731, 42.0352], [-72.6732, 42.0352], [-72.6755, 42.0354], [-72.6783, 42.0356], [-72.6828, 42.0358], [-72.6861, 42.0361], [-72.6877, 42.0362], [-72.6963, 42.0368], [-72.697, 42.0368], [-72.6993, 42.037], [-72.6994, 42.037], [-72.6998, 42.037], [-72.7003, 42.037], [-72.704, 42.0369], [-72.7109, 42.0369], [-72.7119, 42.0369], [-72.7123, 42.0369], [-72.7134, 42.0369], [-72.7141, 42.0369], [-72.7144, 42.0369], [-72.7146, 42.0369], [-72.7146, 42.0366], [-72.7149, 42.0366], [-72.7159, 42.0365], [-72.7171, 42.0365], [-72.7193, 42.0365], [-72.7219, 42.0365], [-72.7272, 42.0365], [-72.7517, 42.0364], [-72.7541, 42.0364], [-72.7553, 42.0364], [-72.7559, 42.0363], [-72.7559, 42.0358], [-72.7559, 42.0355], [-72.756, 42.0352], [-72.756, 42.0349], [-72.7563, 42.0348], [-72.7565, 42.0346], [-72.7566, 42.0345], [-72.7568, 42.0344], [-72.7569, 42.0342], [-72.7569, 42.034], [-72.7569, 42.0338], [-72.7571, 42.0336], [-72.7573, 42.0334], [-72.757, 42.0333], [-72.7566, 42.0332], [-72.7563, 42.0331], [-72.7559, 42.0331], [-72.7556, 42.033], [-72.7553, 42.0329], [-72.755, 42.0327], [-72.7546, 42.0326], [-72.7544, 42.0324], [-72.7541, 42.0323], [-72.7537, 42.0321], [-72.7535, 42.032], [-72.7533, 42.0318], [-72.7531, 42.0316], [-72.753, 42.0316], [-72.7528, 42.0314], [-72.7526, 42.0312], [-72.7522, 42.0307], [-72.752, 42.0304], [-72.7519, 42.0301], [-72.7519, 42.0298], [-72.752, 42.0295], [-72.7521, 42.029], [-72.7522, 42.0289], [-72.7522, 42.0288], [-72.7523, 42.0287], [-72.7525, 42.0285], [-72.7526, 42.0282], [-72.7528, 42.028], [-72.753, 42.0278], [-72.7533, 42.0276], [-72.7534, 42.0274], [-72.7538, 42.0273], [-72.754, 42.027], [-72.7539, 42.0267], [-72.7541, 42.0266], [-72.7542, 42.0264], [-72.7543, 42.0262], [-72.7544, 42.0259], [-72.7545, 42.0259], [-72.7545, 42.0258], [-72.7548, 42.0255], [-72.7551, 42.0254], [-72.7553, 42.0252], [-72.7556, 42.025], [-72.7558, 42.0247], [-72.7559, 42.0245], [-72.7559, 42.0243], [-72.756, 42.0241], [-72.7561, 42.0238], [-72.7563, 42.0236], [-72.7565, 42.0233], [-72.7566, 42.0231], [-72.7567, 42.0229], [-72.7567, 42.0226], [-72.7566, 42.0224], [-72.7565, 42.0221], [-72.7566, 42.0219], [-72.7567, 42.0216], [-72.7569, 42.0214], [-72.7572, 42.0211], [-72.7572, 42.0211], [-72.7573, 42.021], [-72.7576, 42.0209], [-72.7579, 42.0209], [-72.7581, 42.0208], [-72.7584, 42.0208], [-72.7584, 42.0208], [-72.7587, 42.0209], [-72.759, 42.021], [-72.7592, 42.0211], [-72.7593, 42.0213], [-72.7592, 42.0215], [-72.7592, 42.0218], [-72.7593, 42.0219], [-72.7594, 42.0222], [-72.7597, 42.0223], [-72.7598, 42.0224], [-72.7603, 42.0225], [-72.7606, 42.0226], [-72.7607, 42.0227], [-72.7611, 42.0227], [-72.7612, 42.0227], [-72.7612, 42.0227], [-72.7613, 42.0227], [-72.7614, 42.0227], [-72.7616, 42.0225], [-72.7617, 42.0223], [-72.7619, 42.0222], [-72.7621, 42.0221], [-72.7623, 42.0219], [-72.7624, 42.0219], [-72.7629, 42.0216], [-72.7635, 42.0212], [-72.7636, 42.0212], [-72.7637, 42.0212], [-72.7638, 42.0212], [-72.7639, 42.0214], [-72.7638, 42.0214], [-72.7638, 42.0215], [-72.7638, 42.0215], [-72.7638, 42.0216], [-72.7638, 42.0217], [-72.7639, 42.0218], [-72.7639, 42.0218], [-72.7639, 42.0218], [-72.7639, 42.0219], [-72.764, 42.0219], [-72.764, 42.0219], [-72.7641, 42.0219], [-72.7641, 42.022], [-72.7642, 42.022], [-72.7642, 42.022], [-72.7642, 42.022], [-72.7643, 42.022], [-72.7644, 42.022], [-72.7645, 42.0221], [-72.7647, 42.0221], [-72.7647, 42.0222], [-72.7648, 42.0222], [-72.7648, 42.0222], [-72.7648, 42.0222], [-72.7648, 42.0222], [-72.7649, 42.0222], [-72.7649, 42.0222], [-72.7649, 42.0223], [-72.7649, 42.0223], [-72.7649, 42.0224], [-72.765, 42.0224], [-72.7651, 42.0224], [-72.7653, 42.0224], [-72.7653, 42.0223], [-72.7653, 42.0221], [-72.7653, 42.022], [-72.7653, 42.0219], [-72.7651, 42.0217], [-72.7649, 42.0217], [-72.7648, 42.0216], [-72.7646, 42.0215], [-72.7645, 42.0214], [-72.7645, 42.0212], [-72.7645, 42.021], [-72.7645, 42.0209], [-72.7645, 42.0208], [-72.7646, 42.0207], [-72.7648, 42.0206], [-72.7651, 42.0205], [-72.7653, 42.0204], [-72.7654, 42.0203], [-72.7655, 42.02], [-72.7656, 42.02], [-72.7656, 42.0199], [-72.7656, 42.0198], [-72.7656, 42.0198], [-72.7657, 42.0197], [-72.7658, 42.0196], [-72.7657, 42.0195], [-72.7657, 42.0194], [-72.7656, 42.0194], [-72.7655, 42.0195], [-72.7654, 42.0196], [-72.7653, 42.0196], [-72.7652, 42.0197], [-72.7652, 42.0198], [-72.7651, 42.0198], [-72.7651, 42.0198], [-72.765, 42.0199], [-72.7649, 42.0199], [-72.7648, 42.0199], [-72.7647, 42.0199], [-72.7646, 42.02], [-72.7645, 42.0199], [-72.7643, 42.0199], [-72.764, 42.0199], [-72.7637, 42.0199], [-72.7635, 42.0198], [-72.7633, 42.0198], [-72.7632, 42.0198], [-72.7631, 42.0198], [-72.7629, 42.0197], [-72.7629, 42.0196], [-72.7628, 42.0193], [-72.7627, 42.0191], [-72.7627, 42.0189], [-72.7626, 42.0187], [-72.7625, 42.0185], [-72.7625, 42.0182], [-72.7622, 42.0179], [-72.762, 42.0177], [-72.7618, 42.0176], [-72.7616, 42.0174], [-72.7613, 42.0173], [-72.7611, 42.0172], [-72.7607, 42.0171], [-72.7606, 42.0171], [-72.7604, 42.0172], [-72.7604, 42.0172], [-72.7603, 42.0173], [-72.7602, 42.0173], [-72.7601, 42.0173], [-72.7601, 42.0173], [-72.76, 42.0173], [-72.76, 42.0172], [-72.7599, 42.0171], [-72.7599, 42.0171], [-72.7599, 42.017], [-72.7598, 42.0169], [-72.7598, 42.0169], [-72.7598, 42.0168], [-72.7598, 42.0168], [-72.7598, 42.0167], [-72.7598, 42.0167], [-72.7599, 42.0167], [-72.7599, 42.0167], [-72.76, 42.0165], [-72.76, 42.0164], [-72.76, 42.0164], [-72.76, 42.0163], [-72.7599, 42.0163], [-72.7598, 42.0163], [-72.7597, 42.0164], [-72.7597, 42.0164], [-72.7596, 42.0164], [-72.7596, 42.0163], [-72.7595, 42.0163], [-72.7594, 42.0162], [-72.7593, 42.0162], [-72.7593, 42.016], [-72.7593, 42.016], [-72.7592, 42.0158], [-72.7591, 42.0157], [-72.7591, 42.0156], [-72.7591, 42.0156], [-72.7591, 42.0155], [-72.7591, 42.0155], [-72.759, 42.0155], [-72.759, 42.0155], [-72.759, 42.0155], [-72.759, 42.0155], [-72.7589, 42.0155], [-72.759, 42.0154], [-72.7591, 42.0154], [-72.7592, 42.0153], [-72.7593, 42.0152], [-72.7596, 42.0152], [-72.7596, 42.0152], [-72.7597, 42.0151], [-72.7597, 42.0152], [-72.7598, 42.0153], [-72.76, 42.0153], [-72.7601, 42.0154], [-72.7603, 42.0154], [-72.7604, 42.0155], [-72.7605, 42.0156], [-72.7604, 42.0156], [-72.7604, 42.0157], [-72.7605, 42.0157], [-72.7606, 42.0157], [-72.7606, 42.0157], [-72.7608, 42.0154], [-72.7609, 42.0152], [-72.7609, 42.0149], [-72.761, 42.0147], [-72.7613, 42.0145], [-72.7614, 42.0144], [-72.7614, 42.0144], [-72.7616, 42.0143], [-72.7618, 42.0142], [-72.7619, 42.0141], [-72.7622, 42.0141], [-72.7624, 42.014], [-72.7627, 42.0137], [-72.7628, 42.0136], [-72.763, 42.0135], [-72.7631, 42.0133], [-72.7631, 42.013], [-72.7631, 42.0128], [-72.7631, 42.0125], [-72.7631, 42.0122], [-72.7631, 42.012], [-72.7628, 42.0118], [-72.7627, 42.0116], [-72.7627, 42.0116], [-72.7625, 42.0115], [-72.7624, 42.0112], [-72.7623, 42.0109], [-72.7622, 42.0108], [-72.7621, 42.0106], [-72.7621, 42.0103], [-72.7619, 42.0102], [-72.7617, 42.01], [-72.7615, 42.01], [-72.7614, 42.0099], [-72.7614, 42.0097], [-72.7614, 42.0095], [-72.7615, 42.0093], [-72.7618, 42.009], [-72.7622, 42.0089], [-72.7624, 42.0088], [-72.7626, 42.0087], [-72.763, 42.0085], [-72.7634, 42.0085], [-72.7637, 42.0085], [-72.764, 42.0084], [-72.7643, 42.0084], [-72.7646, 42.0084], [-72.7649, 42.0084], [-72.7651, 42.0083], [-72.7655, 42.0082], [-72.7657, 42.0081], [-72.7657, 42.0081], [-72.7659, 42.008], [-72.7663, 42.0079], [-72.7664, 42.0064], [-72.7667, 42.0033], [-72.7702, 42.0029], [-72.7705, 42.0028], [-72.7707, 42.0028], [-72.7713, 42.0028], [-72.7717, 42.0027], [-72.7747, 42.0024], [-72.7826, 42.0015], [-72.7849, 42.0013], [-72.7941, 42.0002], [-72.7949, 42.0001], [-72.8086, 41.9986], [-72.813, 41.9981], [-72.8171, 41.9977], [-72.8169, 41.9995], [-72.8163, 42.0066], [-72.816, 42.0108], [-72.8138, 42.0367], [-72.8165, 42.0368], [-72.8166, 42.0368], [-72.8168, 42.0368], [-72.8229, 42.0369], [-72.8236, 42.0369], [-72.8244, 42.0369], [-72.8259, 42.0369], [-72.8274, 42.037], [-72.835, 42.0371], [-72.8441, 42.0372], [-72.8464, 42.0373], [-72.8475, 42.0373], [-72.8569, 42.0374], [-72.8608, 42.0375], [-72.8614, 42.0375], [-72.8625, 42.0375], [-72.8636, 42.0375], [-72.8651, 42.0375], [-72.8654, 42.0375], [-72.8654, 42.0375], [-72.8654, 42.0375], [-72.8656, 42.0375], [-72.8695, 42.0375], [-72.8723, 42.0375], [-72.8733, 42.0377], [-72.8735, 42.0377], [-72.8744, 42.0377], [-72.8745, 42.0377], [-72.8745, 42.0377], [-72.8745, 42.0377], [-72.8748, 42.0377], [-72.8802, 42.0377], [-72.8829, 42.0377], [-72.8897, 42.0378], [-72.8979, 42.0378], [-72.921, 42.0379], [-72.9242, 42.0379], [-72.9255, 42.038], [-72.9272, 42.038], [-72.9273, 42.038], [-72.9321, 42.038], [-72.9323, 42.038], [-72.9396, 42.038], [-72.9399, 42.038], [-72.9435, 42.038], [-72.9443, 42.0381], [-72.9488, 42.0381], [-72.9662, 42.0382], [-72.9749, 42.0382], [-72.9775, 42.0382], [-72.979, 42.0382], [-72.9842, 42.0383], [-72.9842, 42.0383], [-72.9962, 42.0386], [-72.9965, 42.0386], [-73.0088, 42.0388], [-73.011, 42.0388], [-73.0112, 42.0388], [-73.02, 42.039], [-73.0247, 42.0391], [-73.0361, 42.0393], [-73.0368, 42.0393], [-73.0408, 42.0394], [-73.0441, 42.0395], [-73.0454, 42.0396], [-73.0455, 42.0396], [-73.0462, 42.0396], [-73.0489, 42.0397], [-73.049, 42.0397], [-73.05, 42.0397], [-73.0527, 42.0399], [-73.0533, 42.0399], [-73.0533, 42.0399], [-73.0551, 42.0399], [-73.0553, 42.0399], [-73.0558, 42.0399], [-73.056, 42.0399], [-73.0606, 42.04], [-73.0658, 42.0402], [-73.0675, 42.0403], [-73.068, 42.0403], [-73.0766, 42.0406], [-73.0835, 42.0408], [-73.0871, 42.0409], [-73.0935, 42.0411], [-73.0955, 42.0411], [-73.0963, 42.0412], [-73.1003, 42.0413], [-73.101, 42.0413], [-73.1021, 42.0413], [-73.1022, 42.0413], [-73.104, 42.0414], [-73.1199, 42.0419], [-73.1272, 42.0421], [-73.1294, 42.0422], [-73.1306, 42.0422], [-73.1347, 42.0424], [-73.1354, 42.0424], [-73.154, 42.0429], [-73.1655, 42.0432], [-73.17, 42.0433], [-73.1721, 42.0434], [-73.1833, 42.0437], [-73.1931, 42.044], [-73.1944, 42.044], [-73.1959, 42.044], [-73.2055, 42.0443], [-73.224, 42.0448], [-73.2287, 42.0449], [-73.2315, 42.045], [-73.2323, 42.045], [-73.233, 42.045], [-73.2334, 42.0451], [-73.2336, 42.0451], [-73.235, 42.0451], [-73.2411, 42.0453], [-73.2422, 42.0453], [-73.2495, 42.0455], [-73.2502, 42.0456], [-73.2504, 42.0456], [-73.2543, 42.0457], [-73.2555, 42.0457], [-73.2567, 42.0458], [-73.2579, 42.0458], [-73.2617, 42.0459], [-73.2629, 42.046], [-73.2644, 42.046], [-73.2686, 42.0461], [-73.27, 42.0462], [-73.2705, 42.0462], [-73.2713, 42.0462], [-73.2724, 42.0463], [-73.2858, 42.0467], [-73.2859, 42.0467], [-73.286, 42.0467], [-73.287, 42.0467], [-73.2873, 42.0467], [-73.2882, 42.0468], [-73.2885, 42.0468], [-73.293, 42.0469], [-73.2946, 42.047], [-73.2949, 42.047], [-73.2953, 42.047], [-73.2956, 42.047], [-73.2959, 42.047], [-73.2963, 42.047], [-73.3043, 42.0473], [-73.3054, 42.0473], [-73.3088, 42.0474], [-73.3117, 42.0475], [-73.3118, 42.0475], [-73.3119, 42.0475], [-73.3145, 42.0476], [-73.317, 42.0476], [-73.3182, 42.0477], [-73.3192, 42.0477], [-73.3197, 42.0477], [-73.3242, 42.0479], [-73.3256, 42.0479], [-73.3267, 42.0479], [-73.3277, 42.048], [-73.3283, 42.048], [-73.336, 42.0482], [-73.3405, 42.0484], [-73.3405, 42.0484], [-73.3407, 42.0484], [-73.3414, 42.0484], [-73.3417, 42.0484], [-73.3456, 42.0485], [-73.3653, 42.049], [-73.3748, 42.0492], [-73.3751, 42.0492], [-73.3838, 42.0494], [-73.4001, 42.0498], [-73.4051, 42.0499], [-73.4129, 42.0501], [-73.4227, 42.0503], [-73.4262, 42.0504], [-73.4285, 42.0505], [-73.4368, 42.0505], [-73.4386, 42.0505], [-73.4477, 42.0503], [-73.4611, 42.05], [-73.467, 42.0499], [-73.4676, 42.0499], [-73.4873, 42.0495], [-73.4936, 42.0496], [-73.4938, 42.0496], [-73.497, 42.0496], [-73.4996, 42.0579], [-73.503, 42.0693], [-73.5031, 42.0697], [-73.5032, 42.0697], [-73.5056, 42.0777], [-73.508, 42.0856], [-73.5082, 42.0861], [-73.5078, 42.0874], [-73.5073, 42.0887], [-73.4996, 42.11], [-73.4991, 42.1111], [-73.4976, 42.1153], [-73.4973, 42.1162], [-73.494, 42.1251], [-73.4937, 42.126], [-73.4931, 42.1276], [-73.4931, 42.1277], [-73.4929, 42.1282], [-73.4903, 42.1355], [-73.4897, 42.1371], [-73.4897, 42.1371], [-73.489, 42.1391], [-73.4888, 42.1394], [-73.4869, 42.1449], [-73.4862, 42.1468], [-73.4841, 42.1527], [-73.4834, 42.1544], [-73.4832, 42.1549], [-73.4823, 42.1573], [-73.4801, 42.1634], [-73.4795, 42.1651], [-73.4795, 42.1652], [-73.479, 42.1665], [-73.4782, 42.1687], [-73.4779, 42.1693], [-73.4778, 42.1696], [-73.4772, 42.1713], [-73.4769, 42.1722], [-73.4767, 42.1727], [-73.4766, 42.1728], [-73.4762, 42.1741], [-73.4759, 42.1749], [-73.475, 42.1773], [-73.4707, 42.1891], [-73.4703, 42.1902], [-73.4702, 42.1902], [-73.466, 42.2019], [-73.4635, 42.2086], [-73.4635, 42.2086], [-73.463, 42.2098], [-73.4602, 42.2175], [-73.4602, 42.2176], [-73.4602, 42.2176], [-73.4595, 42.2194], [-73.4565, 42.2276], [-73.4558, 42.2295], [-73.4555, 42.2304], [-73.4555, 42.2305], [-73.4554, 42.2305], [-73.4554, 42.2308], [-73.4545, 42.2332], [-73.4544, 42.2333], [-73.4544, 42.2334], [-73.4544, 42.2334], [-73.4544, 42.2334], [-73.4544, 42.2335], [-73.4538, 42.235], [-73.4538, 42.2351], [-73.4537, 42.2352], [-73.4537, 42.2353], [-73.451, 42.2428], [-73.4502, 42.2448], [-73.4502, 42.2448], [-73.4495, 42.2468], [-73.4495, 42.2468], [-73.4495, 42.2468], [-73.4483, 42.2501], [-73.4477, 42.2516], [-73.4476, 42.2519], [-73.4431, 42.264], [-73.4408, 42.2704], [-73.4374, 42.2796], [-73.4373, 42.2798], [-73.4373, 42.2798], [-73.4365, 42.282], [-73.4342, 42.2884], [-73.4317, 42.2951], [-73.4316, 42.2953], [-73.4313, 42.2961], [-73.4296, 42.3008], [-73.4192, 42.3291], [-73.4192, 42.3291], [-73.4189, 42.3299], [-73.4187, 42.3304], [-73.4185, 42.3308], [-73.4184, 42.3313], [-73.4164, 42.3365], [-73.4164, 42.3366], [-73.4143, 42.3423], [-73.4143, 42.3425], [-73.4139, 42.3435], [-73.4122, 42.348], [-73.4122, 42.3482], [-73.4118, 42.3492], [-73.4115, 42.3499], [-73.4114, 42.3502], [-73.4113, 42.3506], [-73.4109, 42.3516], [-73.4109, 42.3517], [-73.4093, 42.3559], [-73.4064, 42.3639], [-73.4062, 42.3645], [-73.4061, 42.3646], [-73.4057, 42.3656], [-73.4056, 42.3659], [-73.4054, 42.3664], [-73.4054, 42.3665], [-73.4031, 42.3727], [-73.4031, 42.3728], [-73.4031, 42.3728], [-73.4028, 42.3734], [-73.4022, 42.3751], [-73.4019, 42.3759], [-73.4019, 42.376], [-73.4008, 42.379], [-73.3981, 42.3863], [-73.3968, 42.3899], [-73.3917, 42.4038], [-73.39, 42.4082], [-73.3897, 42.4091], [-73.3888, 42.4116], [-73.3858, 42.4198], [-73.3839, 42.4248], [-73.3837, 42.4255], [-73.3836, 42.4257], [-73.3833, 42.4265], [-73.3827, 42.4281], [-73.3822, 42.4294], [-73.3795, 42.4369], [-73.3788, 42.4386], [-73.3786, 42.4392], [-73.3753, 42.4481], [-73.3746, 42.45], [-73.3745, 42.4503], [-73.3698, 42.463], [-73.3694, 42.464], [-73.369, 42.4651], [-73.365, 42.476], [-73.3646, 42.477], [-73.3635, 42.48], [-73.3628, 42.4819], [-73.3624, 42.4832], [-73.3621, 42.4838], [-73.3593, 42.4914], [-73.3586, 42.4932], [-73.3571, 42.4973], [-73.3568, 42.4983], [-73.3563, 42.4994], [-73.3542, 42.5051], [-73.3524, 42.51], [-73.352, 42.5111], [-73.3518, 42.5116], [-73.3472, 42.5241], [-73.344, 42.5327], [-73.343, 42.5358], [-73.3427, 42.5365], [-73.3427, 42.5366], [-73.3416, 42.5393], [-73.3416, 42.5394], [-73.3413, 42.5403], [-73.3291, 42.5732], [-73.329, 42.5733], [-73.3282, 42.5754], [-73.3282, 42.5755], [-73.3282, 42.5756], [-73.3281, 42.5757], [-73.3281, 42.5758], [-73.3281, 42.5758], [-73.3281, 42.5758], [-73.3281, 42.5758], [-73.3277, 42.5769], [-73.3253, 42.5831], [-73.3253, 42.5832], [-73.325, 42.584], [-73.3227, 42.5902], [-73.3227, 42.5902], [-73.3211, 42.5947], [-73.3178, 42.6035], [-73.317, 42.6057], [-73.3162, 42.6076], [-73.3162, 42.6077], [-73.3162, 42.6077], [-73.315, 42.6109], [-73.3148, 42.6114], [-73.3148, 42.6116], [-73.3147, 42.6117], [-73.3147, 42.6118], [-73.3146, 42.612], [-73.3145, 42.6122], [-73.3125, 42.6177], [-73.3101, 42.6243], [-73.3098, 42.6251], [-73.3083, 42.6291], [-73.307, 42.6326], [-73.3069, 42.6329], [-73.305, 42.6378], [-73.2941, 42.6673], [-73.2834, 42.6959], [-73.2814, 42.7014], [-73.281, 42.7025], [-73.2808, 42.703], [-73.2787, 42.7086], [-73.2773, 42.7123], [-73.274, 42.7212], [-73.2733, 42.7232], [-73.273, 42.7239], [-73.2658, 42.7431], [-73.2654, 42.7444], [-73.2648, 42.7459], [-73.2647, 42.7458], [-73.2608, 42.7458], [-73.2453, 42.7455], [-73.2387, 42.7454], [-73.2374, 42.7453], [-73.2369, 42.7453], [-73.2354, 42.7453], [-73.2149, 42.7449], [-73.2148, 42.7449], [-73.2147, 42.7449], [-73.2145, 42.7449], [-73.2144, 42.7449], [-73.2137, 42.7449], [-73.2136, 42.7449], [-73.2132, 42.7449], [-73.2105, 42.7448], [-73.2076, 42.7448], [-73.207, 42.7448], [-73.199, 42.7446], [-73.1889, 42.7444], [-73.1877, 42.7444], [-73.1843, 42.7443], [-73.1818, 42.7443], [-73.1805, 42.7443], [-73.1741, 42.7441], [-73.1636, 42.7439], [-73.1636, 42.7439], [-73.1531, 42.7437], [-73.1427, 42.7435], [-73.1425, 42.7435], [-73.1416, 42.7436], [-73.1201, 42.7431], [-73.1192, 42.7431], [-73.118, 42.743], [-73.1166, 42.743], [-73.1002, 42.7427], [-73.0976, 42.7426], [-73.0899, 42.7425], [-73.0888, 42.7425], [-73.0797, 42.7423], [-73.0794, 42.7423], [-73.073, 42.7422], [-73.0723, 42.7421], [-73.0715, 42.7421], [-73.0703, 42.7421], [-73.0694, 42.7421], [-73.0688, 42.7421], [-73.0674, 42.742], [-73.0662, 42.742], [-73.0622, 42.7419], [-73.0546, 42.7418], [-73.0485, 42.7417], [-73.0484, 42.7417], [-73.048, 42.7416], [-73.0422, 42.7415], [-73.0337, 42.7414], [-73.0328, 42.7413], [-73.0251, 42.7412], [-73.023, 42.7411], [-73.0226, 42.7411], [-73.0196, 42.7411], [-73.0186, 42.7411], [-73.0156, 42.741], [-73.0108, 42.7409], [-73.0107, 42.7408], [-73.0095, 42.7408], [-73.006, 42.7407], [-72.9994, 42.7406], [-72.999, 42.7406], [-72.9795, 42.7402], [-72.9672, 42.74], [-72.963, 42.7399], [-72.9484, 42.7396], [-72.948, 42.7396], [-72.9303, 42.7393], [-72.9301, 42.7393], [-72.9301, 42.7393], [-72.9298, 42.7393], [-72.9286, 42.7393], [-72.9283, 42.7393], [-72.9272, 42.7392], [-72.927, 42.7392], [-72.9268, 42.7392], [-72.9267, 42.7392], [-72.9261, 42.7392], [-72.9255, 42.7392], [-72.925, 42.7392], [-72.9236, 42.7392], [-72.917, 42.739], [-72.9166, 42.739], [-72.8977, 42.7386], [-72.8918, 42.7385], [-72.8915, 42.7385], [-72.8828, 42.7383], [-72.8773, 42.7381], [-72.8745, 42.7381], [-72.8703, 42.738], [-72.8701, 42.738], [-72.8672, 42.7379], [-72.8643, 42.7378], [-72.8642, 42.7378], [-72.8581, 42.7377], [-72.8577, 42.7377], [-72.8549, 42.7376], [-72.8544, 42.7376], [-72.8375, 42.7372], [-72.8164, 42.7367], [-72.8106, 42.7366], [-72.8104, 42.7366], [-72.8091, 42.7366], [-72.807, 42.7365], [-72.7911, 42.736], [-72.791, 42.736], [-72.786, 42.7359], [-72.7793, 42.7358], [-72.7789, 42.7358], [-72.7785, 42.7357], [-72.7784, 42.7357], [-72.7782, 42.7357], [-72.7781, 42.7357], [-72.778, 42.7357], [-72.7779, 42.7357], [-72.7778, 42.7357], [-72.7681, 42.7355], [-72.7622, 42.7353], [-72.7589, 42.7352], [-72.7495, 42.735], [-72.7235, 42.7342], [-72.7234, 42.7342], [-72.7233, 42.7342], [-72.7233, 42.7342], [-72.7214, 42.7341], [-72.7213, 42.7341], [-72.7201, 42.7341], [-72.7198, 42.7341], [-72.7194, 42.7341], [-72.713, 42.7339], [-72.7014, 42.7336], [-72.6927, 42.7334], [-72.6867, 42.7332], [-72.6863, 42.7332], [-72.6862, 42.7332], [-72.6862, 42.7332], [-72.686, 42.7332], [-72.6858, 42.7332], [-72.6853, 42.7332], [-72.683, 42.7331], [-72.6765, 42.7329], [-72.6761, 42.7329], [-72.676, 42.7329], [-72.6759, 42.7329], [-72.6758, 42.7329], [-72.6749, 42.7329], [-72.6747, 42.7329], [-72.6742, 42.7329], [-72.6617, 42.7326], [-72.6612, 42.7325], [-72.6583, 42.7325], [-72.6431, 42.7321], [-72.6418, 42.732], [-72.6245, 42.7316], [-72.6234, 42.7316], [-72.6208, 42.7315], [-72.6165, 42.7313], [-72.6164, 42.7313], [-72.6135, 42.7312], [-72.6133, 42.7312], [-72.6124, 42.7312], [-72.6066, 42.7311], [-72.6042, 42.731], [-72.6036, 42.731], [-72.6023, 42.731], [-72.6016, 42.731], [-72.5987, 42.7309], [-72.5986, 42.7309], [-72.5985, 42.7309], [-72.592, 42.7307], [-72.5918, 42.7307], [-72.5906, 42.7306], [-72.5759, 42.7303], [-72.5733, 42.7302], [-72.5731, 42.7302], [-72.5709, 42.7301], [-72.5704, 42.7301], [-72.5703, 42.7301], [-72.57, 42.7301], [-72.5699, 42.7301], [-72.566, 42.73], [-72.5659, 42.73], [-72.5654, 42.73], [-72.5546, 42.7297], [-72.5293, 42.7289], [-72.5172, 42.7285], [-72.5167, 42.7285], [-72.5163, 42.7285], [-72.5115, 42.7284], [-72.4995, 42.7281], [-72.4922, 42.7278], [-72.465, 42.7271], [-72.4646, 42.727], [-72.4632, 42.727], [-72.4629, 42.727], [-72.4627, 42.727], [-72.4623, 42.727], [-72.4622, 42.727], [-72.4622, 42.727], [-72.462, 42.727], [-72.4619, 42.727], [-72.4584, 42.7269], [-72.4574, 42.7269], [-72.4572, 42.7269], [-72.456, 42.7268], [-72.4558, 42.7268], [-72.4518, 42.7267], [-72.4512, 42.7267], [-72.4508, 42.7267], [-72.449, 42.7266], [-72.4485, 42.7266], [-72.446, 42.7265], [-72.4457, 42.7265], [-72.4449, 42.7264], [-72.4435, 42.7264], [-72.4427, 42.7263], [-72.442, 42.7263], [-72.4405, 42.7263], [-72.4393, 42.7262], [-72.4391, 42.7262], [-72.438, 42.7262], [-72.436, 42.7261], [-72.4345, 42.726], [-72.433, 42.726], [-72.4315, 42.7259], [-72.4301, 42.7259], [-72.4292, 42.7258], [-72.4291, 42.7258], [-72.4272, 42.7258], [-72.4258, 42.7257], [-72.4244, 42.7257], [-72.423, 42.7257], [-72.4216, 42.7256], [-72.4202, 42.7256], [-72.4188, 42.7255], [-72.4174, 42.7255], [-72.4164, 42.7255], [-72.4154, 42.7254], [-72.4143, 42.7254], [-72.4131, 42.7254], [-72.4124, 42.7254], [-72.412, 42.7254], [-72.412, 42.7254], [-72.4114, 42.7253], [-72.4101, 42.7253], [-72.4088, 42.7253], [-72.4074, 42.7252], [-72.4061, 42.7252], [-72.4047, 42.7251], [-72.4034, 42.7251], [-72.4033, 42.7251], [-72.4021, 42.7251], [-72.4006, 42.725], [-72.3997, 42.725], [-72.3992, 42.725], [-72.3989, 42.725], [-72.3985, 42.7249], [-72.3982, 42.7249], [-72.3978, 42.7249], [-72.3964, 42.7249], [-72.395, 42.7248], [-72.3936, 42.7248], [-72.3922, 42.7248], [-72.3912, 42.7247], [-72.3906, 42.7247], [-72.3899, 42.7247], [-72.3887, 42.7247], [-72.3872, 42.7247], [-72.3857, 42.7246], [-72.3843, 42.7246], [-72.3828, 42.7245], [-72.3813, 42.7245], [-72.3798, 42.7244], [-72.3786, 42.7244], [-72.3783, 42.7244], [-72.3768, 42.7243], [-72.3753, 42.7243], [-72.3746, 42.7243], [-72.3746, 42.7243], [-72.3739, 42.7243], [-72.3739, 42.7243], [-72.373, 42.7242], [-72.3714, 42.7242], [-72.371, 42.7242], [-72.3696, 42.7241], [-72.3681, 42.7241], [-72.3666, 42.724], [-72.3651, 42.724], [-72.3637, 42.7239], [-72.3627, 42.7239], [-72.3626, 42.7239], [-72.3622, 42.7239], [-72.3607, 42.7238], [-72.3592, 42.7238], [-72.3577, 42.7237], [-72.3562, 42.7237], [-72.3557, 42.7237], [-72.3548, 42.7236], [-72.3533, 42.7236], [-72.3518, 42.7235], [-72.3503, 42.7235], [-72.3488, 42.7234], [-72.3473, 42.7234], [-72.3464, 42.7234], [-72.3463, 42.7234], [-72.3458, 42.7234], [-72.3443, 42.7233], [-72.3428, 42.7233], [-72.3413, 42.7233], [-72.3398, 42.7232], [-72.3383, 42.7232], [-72.3375, 42.7232], [-72.3368, 42.7231], [-72.3353, 42.7231], [-72.3338, 42.7231], [-72.3323, 42.723], [-72.331, 42.723], [-72.3297, 42.7229], [-72.3284, 42.7229], [-72.3271, 42.7229], [-72.3263, 42.7229], [-72.3258, 42.7229], [-72.3245, 42.7228], [-72.323, 42.7228], [-72.3216, 42.7227], [-72.3203, 42.7227], [-72.32, 42.7227], [-72.3187, 42.7227], [-72.3172, 42.7226], [-72.3158, 42.7226], [-72.3143, 42.7226], [-72.3129, 42.7225], [-72.3114, 42.7225], [-72.31, 42.7224], [-72.3086, 42.7224], [-72.3071, 42.7224], [-72.3057, 42.7223], [-72.3048, 42.7223], [-72.3048, 42.7223], [-72.3047, 42.7223], [-72.3042, 42.7223], [-72.3027, 42.7223], [-72.3012, 42.7222], [-72.2999, 42.7222], [-72.2982, 42.7221], [-72.2967, 42.7221], [-72.2963, 42.7221], [-72.2952, 42.722], [-72.2937, 42.722], [-72.2936, 42.722], [-72.2924, 42.7219], [-72.2922, 42.7219], [-72.2907, 42.7219], [-72.2902, 42.7219], [-72.2892, 42.7218], [-72.2877, 42.7218], [-72.2864, 42.7217], [-72.286, 42.7217], [-72.2851, 42.7217], [-72.2838, 42.7216], [-72.2831, 42.7216], [-72.283, 42.7216], [-72.2825, 42.7216], [-72.2812, 42.7216], [-72.2799, 42.7215], [-72.2798, 42.7215], [-72.2769, 42.7214], [-72.2755, 42.7214], [-72.2741, 42.7214], [-72.2726, 42.7213], [-72.2712, 42.7213], [-72.2701, 42.7213], [-72.2697, 42.7213], [-72.2682, 42.7212], [-72.2668, 42.7212], [-72.2653, 42.7212], [-72.2639, 42.7211], [-72.2633, 42.7211], [-72.2626, 42.7211], [-72.2625, 42.7211], [-72.2624, 42.7211], [-72.261, 42.721], [-72.26, 42.721], [-72.2596, 42.721], [-72.2581, 42.7209], [-72.2567, 42.7209], [-72.2553, 42.7208], [-72.2538, 42.7208], [-72.2524, 42.7207], [-72.251, 42.7207], [-72.2496, 42.7207], [-72.2482, 42.7207], [-72.2477, 42.7207], [-72.2396, 42.7205], [-72.2394, 42.7205], [-72.2351, 42.7204], [-72.2302, 42.7202], [-72.2236, 42.7201], [-72.2224, 42.72], [-72.2223, 42.72], [-72.2223, 42.72], [-72.2214, 42.72], [-72.2105, 42.7197], [-72.2036, 42.7196], [-72.2027, 42.7196], [-72.1903, 42.7192], [-72.1899, 42.7192], [-72.1821, 42.719], [-72.1768, 42.7189], [-72.1749, 42.7188], [-72.1748, 42.7188], [-72.1716, 42.7188], [-72.1715, 42.7188], [-72.1685, 42.7187], [-72.1534, 42.7183], [-72.1454, 42.7181], [-72.1265, 42.7176], [-72.1261, 42.7176], [-72.1253, 42.7176], [-72.1252, 42.7176], [-72.1246, 42.7176], [-72.1111, 42.7172], [-72.0984, 42.7168], [-72.0893, 42.7166], [-72.086, 42.7165], [-72.0833, 42.7164], [-72.0814, 42.7163], [-72.0786, 42.7162], [-72.0777, 42.7162], [-72.0609, 42.7157], [-72.0585, 42.7156], [-72.0552, 42.7155], [-72.0545, 42.7155], [-72.0539, 42.7155], [-72.0528, 42.7154], [-72.0498, 42.7154], [-72.0442, 42.7152], [-72.0406, 42.7151], [-72.0327, 42.7148], [-72.0203, 42.7145], [-72.0157, 42.7143], [-72.015, 42.7143], [-72.0148, 42.7143], [-72.013, 42.7143], [-72.0107, 42.7142], [-72.0102, 42.7142], [-72.0096, 42.7141], [-72.0095, 42.7141], [-72.0078, 42.7141], [-72.0071, 42.7141], [-72.0064, 42.7141], [-72.0026, 42.7139], [-72.0011, 42.7139], [-72.0003, 42.7139], [-72.0001, 42.7139], [-71.9996, 42.7138], [-71.9995, 42.7138], [-71.9993, 42.7138], [-71.9991, 42.7138], [-71.9975, 42.7138], [-71.9957, 42.7137], [-71.9956, 42.7137], [-71.9953, 42.7137], [-71.9946, 42.7137], [-71.9923, 42.7136], [-71.9921, 42.7136], [-71.9921, 42.7136], [-71.9911, 42.7135], [-71.9899, 42.7135], [-71.9816, 42.7132], [-71.9814, 42.7132], [-71.9806, 42.7132], [-71.9728, 42.7131], [-71.9624, 42.7128], [-71.9614, 42.7128], [-71.9574, 42.7127], [-71.9559, 42.7127], [-71.9507, 42.7126], [-71.9497, 42.7126], [-71.9481, 42.7125], [-71.9478, 42.7125], [-71.9451, 42.7125], [-71.9405, 42.7124], [-71.9357, 42.7123], [-71.9318, 42.7122], [-71.9311, 42.7122], [-71.929, 42.7121], [-71.9288, 42.7121], [-71.9286, 42.7121], [-71.9283, 42.7121], [-71.9246, 42.712], [-71.9216, 42.7119], [-71.919, 42.7118], [-71.9172, 42.7118], [-71.9167, 42.7118], [-71.9161, 42.7118], [-71.9126, 42.7117], [-71.9063, 42.7115], [-71.8988, 42.7113], [-71.8987, 42.7113], [-71.8977, 42.7113], [-71.8955, 42.7112], [-71.8913, 42.7111], [-71.8888, 42.7111], [-71.8886, 42.7111], [-71.8885, 42.7111], [-71.8884, 42.7111], [-71.8874, 42.711], [-71.887, 42.711], [-71.8861, 42.711], [-71.884, 42.7109], [-71.882, 42.7109], [-71.8807, 42.7109], [-71.8802, 42.7108], [-71.8798, 42.7108], [-71.8775, 42.7108], [-71.8751, 42.7107], [-71.8686, 42.7106], [-71.8685, 42.7105], [-71.8598, 42.7103], [-71.8573, 42.7103], [-71.857, 42.7103], [-71.854, 42.7102], [-71.8515, 42.7101], [-71.8506, 42.7101], [-71.8498, 42.7101], [-71.8461, 42.71], [-71.8457, 42.71], [-71.8417, 42.7099], [-71.8346, 42.7097], [-71.8343, 42.7097], [-71.8281, 42.7095], [-71.8238, 42.7094], [-71.8232, 42.7094], [-71.8229, 42.7094], [-71.8201, 42.7093], [-71.8129, 42.7091], [-71.8124, 42.7091], [-71.8119, 42.7091], [-71.8116, 42.7091], [-71.8113, 42.7091], [-71.81, 42.7091], [-71.8054, 42.7089], [-71.8007, 42.7088], [-71.8004, 42.7088], [-71.7993, 42.7088], [-71.7988, 42.7088], [-71.7978, 42.7087], [-71.7973, 42.7087], [-71.792, 42.7086], [-71.7915, 42.7086], [-71.7901, 42.7085], [-71.7894, 42.7085], [-71.7889, 42.7085], [-71.7869, 42.7085], [-71.7847, 42.7084], [-71.781, 42.7083], [-71.7782, 42.7082], [-71.7778, 42.7082], [-71.7746, 42.7081], [-71.7726, 42.7081], [-71.772, 42.7081], [-71.7713, 42.708], [-71.7706, 42.708], [-71.7692, 42.708], [-71.7678, 42.7079], [-71.7667, 42.7079], [-71.7665, 42.7079], [-71.7631, 42.7078], [-71.7551, 42.7076], [-71.7537, 42.7076], [-71.7528, 42.7075], [-71.7525, 42.7075], [-71.7523, 42.7075], [-71.7506, 42.7075], [-71.7505, 42.7075], [-71.7501, 42.7075], [-71.7495, 42.7075], [-71.7495, 42.7075], [-71.7492, 42.7075], [-71.7489, 42.7075], [-71.7487, 42.7074], [-71.7481, 42.7074], [-71.7479, 42.7074], [-71.7476, 42.7074], [-71.7467, 42.7074], [-71.7463, 42.7074], [-71.7455, 42.7073], [-71.7449, 42.7073], [-71.7439, 42.7073], [-71.7426, 42.7072], [-71.7416, 42.7072], [-71.7394, 42.7071], [-71.7374, 42.7071], [-71.7356, 42.707], [-71.7345, 42.707], [-71.7339, 42.707], [-71.7336, 42.707], [-71.7328, 42.7069], [-71.7317, 42.7069], [-71.7303, 42.7069], [-71.7288, 42.7068], [-71.7279, 42.7068], [-71.7273, 42.7068], [-71.7269, 42.7068], [-71.7269, 42.7068], [-71.7253, 42.7067], [-71.7243, 42.7067], [-71.7233, 42.7067], [-71.7226, 42.7066], [-71.7217, 42.7066], [-71.7205, 42.7066], [-71.7192, 42.7066], [-71.7172, 42.7065], [-71.7161, 42.7065], [-71.7152, 42.7064], [-71.7136, 42.7064], [-71.712, 42.7063], [-71.7107, 42.7063], [-71.7098, 42.7062], [-71.7093, 42.7062], [-71.7072, 42.7061], [-71.7047, 42.706], [-71.7041, 42.706], [-71.7027, 42.706], [-71.7023, 42.7059], [-71.7013, 42.7059], [-71.7011, 42.7059], [-71.6994, 42.7058], [-71.6965, 42.7057], [-71.6888, 42.7056], [-71.6883, 42.7056], [-71.6864, 42.7055], [-71.686, 42.7055], [-71.6783, 42.7053], [-71.6779, 42.7053], [-71.6758, 42.7053], [-71.6741, 42.7052], [-71.6729, 42.7052], [-71.6722, 42.7052], [-71.6716, 42.7052], [-71.6663, 42.7051], [-71.666, 42.7051], [-71.6649, 42.7051], [-71.6607, 42.705], [-71.6541, 42.7048], [-71.6539, 42.7048], [-71.6532, 42.7048], [-71.6518, 42.7048], [-71.6516, 42.7048], [-71.647, 42.7047], [-71.6467, 42.7047], [-71.6443, 42.7046], [-71.6437, 42.7046], [-71.6426, 42.7046], [-71.6423, 42.7046], [-71.6419, 42.7046], [-71.6377, 42.7046], [-71.6343, 42.7045], [-71.6318, 42.7045], [-71.6308, 42.7044], [-71.6306, 42.7044], [-71.6306, 42.7044], [-71.6304, 42.7044], [-71.6301, 42.7044], [-71.6264, 42.7044], [-71.6245, 42.7043], [-71.6236, 42.7043], [-71.6222, 42.7043], [-71.6215, 42.7043], [-71.6209, 42.7043], [-71.6203, 42.7042], [-71.62, 42.7042], [-71.6198, 42.7042], [-71.6183, 42.7042], [-71.6181, 42.7042], [-71.6175, 42.7042], [-71.6164, 42.7042], [-71.6153, 42.7042], [-71.6144, 42.7041], [-71.6142, 42.7041], [-71.6132, 42.7041], [-71.6128, 42.7041], [-71.6123, 42.7041], [-71.6121, 42.7041], [-71.6106, 42.7041], [-71.6063, 42.704], [-71.6062, 42.704], [-71.6022, 42.704], [-71.6016, 42.704], [-71.6003, 42.7039], [-71.6002, 42.7039], [-71.5975, 42.7038], [-71.5944, 42.7038], [-71.5942, 42.7038], [-71.5913, 42.7037], [-71.5884, 42.7036], [-71.5882, 42.7036], [-71.5859, 42.7036], [-71.5825, 42.7035], [-71.5823, 42.7035], [-71.5792, 42.7034], [-71.5764, 42.7034], [-71.5763, 42.7034], [-71.5736, 42.7033], [-71.5705, 42.7033], [-71.5703, 42.7033], [-71.569, 42.7032], [-71.5673, 42.7032], [-71.5644, 42.7032], [-71.5643, 42.7031], [-71.5614, 42.7031], [-71.5585, 42.703], [-71.5583, 42.703], [-71.5557, 42.703], [-71.5527, 42.7029], [-71.5525, 42.7029], [-71.5524, 42.7029], [-71.5468, 42.7028], [-71.5465, 42.7028], [-71.5463, 42.7028], [-71.5436, 42.7027], [-71.543, 42.7027], [-71.5427, 42.7027], [-71.5425, 42.7027], [-71.5425, 42.7027], [-71.5424, 42.7027], [-71.542, 42.7027], [-71.541, 42.7026], [-71.5404, 42.7026], [-71.539, 42.7026], [-71.5379, 42.7025], [-71.5365, 42.7025], [-71.5351, 42.7025], [-71.535, 42.7025], [-71.5317, 42.7024], [-71.5291, 42.7024], [-71.529, 42.7024], [-71.5234, 42.7023], [-71.5222, 42.7023], [-71.5189, 42.7022], [-71.5173, 42.7022], [-71.5169, 42.7021], [-71.5163, 42.7021], [-71.5149, 42.7021], [-71.5142, 42.7021], [-71.5124, 42.702], [-71.5114, 42.702], [-71.511, 42.7019], [-71.5099, 42.7019], [-71.5059, 42.7018], [-71.5053, 42.7018], [-71.5045, 42.7018], [-71.5039, 42.7018], [-71.4995, 42.7016], [-71.4994, 42.7016], [-71.4957, 42.7015], [-71.4947, 42.7015], [-71.4936, 42.7015], [-71.4935, 42.7015], [-71.4934, 42.7015], [-71.4927, 42.7015], [-71.4897, 42.7014], [-71.4882, 42.7013], [-71.4881, 42.7013], [-71.488, 42.7013], [-71.4876, 42.7013], [-71.4875, 42.7013], [-71.4856, 42.7013], [-71.4826, 42.7012], [-71.4818, 42.7012], [-71.4815, 42.7012], [-71.4801, 42.7011], [-71.4789, 42.7011], [-71.4786, 42.7011], [-71.4781, 42.7011], [-71.4776, 42.701], [-71.4773, 42.701], [-71.4772, 42.701], [-71.477, 42.701], [-71.4756, 42.701], [-71.4755, 42.701], [-71.473, 42.7009], [-71.4701, 42.7008], [-71.4695, 42.7008], [-71.4676, 42.7008], [-71.4661, 42.7008], [-71.4645, 42.7007], [-71.4637, 42.7007], [-71.4635, 42.7007], [-71.4612, 42.7006], [-71.4595, 42.7006], [-71.4578, 42.7005], [-71.4577, 42.7005], [-71.4537, 42.7004], [-71.4524, 42.7004], [-71.4517, 42.7004], [-71.4496, 42.7004], [-71.4493, 42.7003], [-71.4491, 42.7003], [-71.4488, 42.7003], [-71.4479, 42.7003], [-71.4475, 42.7003], [-71.4405, 42.7002], [-71.4403, 42.7002], [-71.4398, 42.7002], [-71.4395, 42.7002], [-71.4377, 42.7002], [-71.4344, 42.7001], [-71.434, 42.7001], [-71.4339, 42.7001], [-71.4335, 42.7001], [-71.4332, 42.7001], [-71.4327, 42.7001], [-71.4323, 42.7], [-71.4317, 42.7], [-71.4248, 42.6999], [-71.4235, 42.6998], [-71.4215, 42.6998], [-71.4204, 42.6998], [-71.4172, 42.6997], [-71.4124, 42.6996], [-71.4099, 42.6995], [-71.4071, 42.6994], [-71.4065, 42.6994], [-71.4058, 42.6994], [-71.4049, 42.6994], [-71.4044, 42.6994], [-71.4024, 42.6993], [-71.3979, 42.6992], [-71.3977, 42.6992], [-71.3976, 42.6992], [-71.3944, 42.6991], [-71.3924, 42.6991], [-71.3905, 42.699], [-71.3891, 42.699], [-71.3882, 42.699], [-71.388, 42.699], [-71.387, 42.6989], [-71.3866, 42.6989], [-71.386, 42.6989], [-71.3847, 42.6989], [-71.3844, 42.6989], [-71.3841, 42.6988], [-71.3832, 42.6988], [-71.3809, 42.6987], [-71.38, 42.6987], [-71.3799, 42.6987], [-71.378, 42.6986], [-71.3753, 42.6986], [-71.3752, 42.6985], [-71.3747, 42.6985], [-71.3743, 42.6985], [-71.3724, 42.6985], [-71.3709, 42.6984], [-71.3704, 42.6984], [-71.3704, 42.6984], [-71.3702, 42.6984], [-71.3701, 42.6984], [-71.3697, 42.6984], [-71.3692, 42.6984], [-71.3674, 42.6983], [-71.3657, 42.6983], [-71.3656, 42.6983], [-71.3654, 42.6983], [-71.3652, 42.6983], [-71.3646, 42.6983], [-71.3641, 42.6983], [-71.3636, 42.6982], [-71.3613, 42.6982], [-71.361, 42.6982], [-71.3588, 42.6981], [-71.3565, 42.698], [-71.3563, 42.698], [-71.355, 42.698], [-71.3522, 42.6979], [-71.3516, 42.6979], [-71.348, 42.6978], [-71.3472, 42.6978], [-71.3471, 42.6978], [-71.3469, 42.6978], [-71.3464, 42.6978], [-71.3462, 42.6978], [-71.3457, 42.6978], [-71.3452, 42.6978], [-71.3449, 42.6978], [-71.3448, 42.6978], [-71.3447, 42.6978], [-71.3441, 42.6978], [-71.3424, 42.6977], [-71.3416, 42.6977], [-71.3413, 42.6977], [-71.341, 42.6977], [-71.3379, 42.6976], [-71.3365, 42.6976], [-71.3304, 42.6975], [-71.3302, 42.6975], [-71.3252, 42.6974], [-71.3218, 42.6973], [-71.3191, 42.6973], [-71.3171, 42.6974], [-71.3135, 42.6973], [-71.3105, 42.6973], [-71.3084, 42.6972], [-71.3051, 42.6972], [-71.3005, 42.6971], [-71.3002, 42.6971], [-71.2977, 42.6971], [-71.2946, 42.697], [-71.2925, 42.6991], [-71.2916, 42.6999], [-71.2912, 42.7004], [-71.2893, 42.7022], [-71.2891, 42.7024], [-71.2889, 42.7025], [-71.2886, 42.7028], [-71.288, 42.7033], [-71.2876, 42.7037], [-71.2875, 42.7038], [-71.2866, 42.7045], [-71.285, 42.706], [-71.2841, 42.7067], [-71.283, 42.7078], [-71.2814, 42.7091], [-71.281, 42.7095], [-71.2806, 42.7098], [-71.28, 42.7104], [-71.2791, 42.7112], [-71.2789, 42.7114], [-71.2785, 42.7119], [-71.2766, 42.7143], [-71.2754, 42.7158], [-71.2753, 42.7159], [-71.2748, 42.7167], [-71.2742, 42.7175], [-71.2718, 42.7207], [-71.2703, 42.7227], [-71.27, 42.7232], [-71.2687, 42.7249], [-71.2679, 42.726], [-71.2664, 42.7272], [-71.2631, 42.73], [-71.2592, 42.7332], [-71.2585, 42.7338], [-71.258, 42.7342], [-71.2559, 42.7359], [-71.2554, 42.7363], [-71.2552, 42.7365], [-71.2551, 42.7366]]]}}]}